{"type":"FeatureCollection","features":[{"type":"Feature","properties":{"geo_id":"ID-11","name":"Aceh"},"geometry":{"type":"MultiPolygon","coordinates":[[[[95.325,5.773],[95.372,5.848],[95.325,5.901],[95.286,5.78],[95.325,5.773]]],[[[95.804,2.635],[95.863,2.638],[95.942,2.572],[96.08,2.567],[96.228,2.442],[96.318,2.416],[96.32,2.362],[96.444,2.328],[96.498,2.363],[96.453,2.476],[96.271,2.574],[96.188,2.651],[96.099,2.649],[96.092,2.749],[96.026,2.757],[95.976,2.811],[95.871,2.846],[95.872,2.913],[95.768,2.897],[95.692,2.774],[95.726,2.761],[95.804,2.635]]],[[[97.178,2.234],[97.174,2.179],[97.26,2.136],[97.307,2.063],[97.356,2.103],[97.301,2.214],[97.178,2.234]]],[[[98.253,4.29],[98.282,4.349],[98.234,4.464],[98.07,4.547],[97.986,4.534],[97.996,4.637],[97.904,4.891],[97.811,4.931],[97.648,5.074],[97.55,5.215],[97.497,5.249],[97.203,5.143],[97.142,5.2],[97.022,5.254],[96.889,5.247],[96.827,5.275],[96.624,5.211],[96.532,5.198],[96.463,5.237],[96.393,5.21],[96.261,5.264],[96.19,5.26],[96.082,5.292],[95.916,5.427],[95.888,5.502],[95.611,5.628],[95.496,5.605],[95.432,5.657],[95.274,5.55],[95.194,5.527],[95.243,5.46],[95.233,5.285],[95.303,5.112],[95.367,5.033],[95.371,4.939],[95.432,4.808],[95.493,4.751],[95.54,4.656],[95.582,4.64],[95.754,4.493],[96.021,4.209],[96.191,4.105],[96.374,3.867],[96.534,3.731],[96.776,3.738],[96.88,3.677],[96.903,3.602],[97.003,3.546],[97.169,3.258],[97.255,3.225],[97.316,3.055],[97.419,2.94],[97.615,2.833],[97.651,2.663],[97.661,2.417],[97.736,2.313],[97.87,2.246],[97.952,2.27],[98.127,2.17],[98.197,2.313],[98.098,2.48],[98.077,2.572],[98.104,2.682],[98.05,2.822],[97.949,2.895],[97.93,3.055],[97.981,3.079],[97.911,3.252],[98.029,3.331],[97.949,3.39],[97.907,3.555],[97.868,3.571],[97.801,3.723],[97.896,3.808],[97.903,3.884],[98.007,3.902],[98.072,4.25],[98.155,4.289],[98.253,4.29]]]]}},{"type":"Feature","properties":{"geo_id":"ID-12","name":"Sumatera Utara"},"geometry":{"type":"MultiPolygon","coordinates":[[[[97.513,0.906],[97.634,0.795],[97.71,0.561],[97.822,0.568],[97.9,0.63],[97.89,0.766],[97.905,0.898],[97.946,0.967],[97.897,1.054],[97.8,1.151],[97.688,1.18],[97.593,1.337],[97.489,1.473],[97.345,1.481],[97.25,1.412],[97.15,1.367],[97.326,1.149],[97.41,0.948],[97.513,0.906]]],[[[98.36,-0.546],[98.399,-0.567],[98.505,-0.496],[98.522,-0.36],[98.44,-0.303],[98.384,-0.344],[98.36,-0.546]]],[[[98.346,-0.04],[98.388,-0.138],[98.506,-0.297],[98.471,-0.094],[98.403,-0.006],[98.346,-0.04]]],[[[98.601,0.093],[98.754,0.073],[98.854,0.116],[98.798,0.171],[98.721,0.157],[98.615,0.181],[98.601,0.093]]],[[[98.253,4.29],[98.155,4.289],[98.072,4.25],[98.007,3.902],[97.903,3.884],[97.896,3.808],[97.801,3.723],[97.868,3.571],[97.907,3.555],[97.949,3.39],[98.029,3.331],[97.911,3.252],[97.981,3.079],[97.93,3.055],[97.949,2.895],[98.05,2.822],[98.104,2.682],[98.077,2.572],[98.098,2.48],[98.197,2.313],[98.127,2.17],[98.272,2.044],[98.34,2.047],[98.458,1.992],[98.608,1.838],[98.673,1.745],[98.787,1.692],[98.84,1.627],[98.759,1.529],[98.789,1.417],[98.832,1.362],[98.841,1.281],[98.914,1.114],[98.995,0.821],[99.058,0.742],[99.066,0.659],[99.107,0.58],[99.167,0.228],[99.19,0.308],[99.317,0.334],[99.412,0.486],[99.512,0.539],[99.578,0.51],[99.649,0.541],[99.718,0.451],[99.785,0.481],[99.908,0.472],[99.96,0.569],[99.911,0.68],[99.851,0.684],[99.837,0.891],[99.944,0.883],[100.077,0.787],[100.181,0.762],[100.122,0.821],[100.151,0.936],[100.111,1.222],[100.126,1.256],[100.053,1.38],[100.181,1.417],[100.301,1.417],[100.422,1.485],[100.417,1.655],[100.289,1.799],[100.318,1.902],[100.321,2.037],[100.373,2.224],[100.311,2.355],[100.299,2.443],[100.322,2.548],[100.234,2.642],[100.22,2.704],[100.138,2.688],[99.985,2.758],[99.992,2.94],[99.889,3.04],[99.832,3.06],[99.757,3.168],[99.547,3.245],[99.489,3.344],[99.319,3.433],[99.292,3.479],[98.952,3.676],[98.774,3.732],[98.716,3.789],[98.694,3.887],[98.559,3.94],[98.541,4.012],[98.401,4.07],[98.178,4.144],[98.245,4.187],[98.253,4.29]]]]}},{"type":"Feature","properties":{"geo_id":"ID-13","name":"Sumatera Barat"},"geometry":{"type":"MultiPolygon","coordinates":[[[[99.276,-1.642],[99.194,-1.566],[99.153,-1.488],[99.164,-1.428],[99.098,-1.362],[99.068,-1.252],[99.002,-1.118],[98.946,-1.08],[98.909,-0.909],[98.797,-0.957],[98.664,-0.982],[98.651,-1.106],[98.603,-1.225],[98.804,-1.519],[98.825,-1.616],[98.884,-1.683],[99.054,-1.786],[99.125,-1.808],[99.243,-1.796],[99.299,-1.716],[99.276,-1.642]]],[[[100.125,-2.836],[100.222,-2.75],[100.169,-2.645],[99.998,-2.503],[99.968,-2.586],[100.012,-2.676],[99.988,-2.774],[100.012,-2.844],[100.125,-2.836]]],[[[99.812,-2.305],[99.735,-2.205],[99.704,-2.091],[99.587,-2.025],[99.547,-2.071],[99.572,-2.145],[99.551,-2.208],[99.796,-2.371],[99.812,-2.305]]],[[[100.257,-3.05],[100.389,-3.2],[100.458,-3.115],[100.467,-3.048],[100.355,-2.901],[100.268,-2.844],[100.236,-2.784],[100.177,-2.813],[100.203,-2.934],[100.188,-2.99],[100.257,-3.05]]],[[[100.181,0.762],[100.077,0.787],[99.944,0.883],[99.837,0.891],[99.851,0.684],[99.911,0.68],[99.96,0.569],[99.908,0.472],[99.785,0.481],[99.718,0.451],[99.649,0.541],[99.578,0.51],[99.512,0.539],[99.412,0.486],[99.317,0.334],[99.19,0.308],[99.167,0.228],[99.221,0.211],[99.36,0.228],[99.398,0.151],[99.618,0.066],[99.748,-0.038],[99.748,-0.135],[99.82,-0.301],[100.083,-0.553],[100.117,-0.63],[100.273,-0.788],[100.343,-0.888],[100.386,-1.027],[100.364,-1.125],[100.49,-1.299],[100.55,-1.315],[100.58,-1.382],[100.563,-1.442],[100.618,-1.495],[100.638,-1.608],[100.682,-1.657],[100.858,-1.913],[100.88,-2.045],[100.825,-2.178],[100.873,-2.241],[100.89,-2.325],[101.022,-2.478],[101.238,-2.339],[101.293,-2.289],[101.261,-2.102],[101.138,-1.899],[101.131,-1.727],[101.216,-1.725],[101.337,-1.681],[101.477,-1.677],[101.486,-1.649],[101.68,-1.498],[101.728,-1.355],[101.694,-1.307],[101.727,-1.235],[101.816,-1.218],[101.884,-1.133],[101.831,-1.111],[101.824,-0.978],[101.698,-0.936],[101.732,-0.871],[101.648,-0.824],[101.588,-0.847],[101.449,-0.765],[101.315,-0.633],[101.255,-0.625],[101.178,-0.542],[101.067,-0.504],[100.992,-0.316],[100.845,-0.343],[100.838,-0.284],[100.774,-0.213],[100.746,-0.052],[100.842,-0.007],[100.843,0.223],[100.815,0.261],[100.701,0.238],[100.647,0.203],[100.559,0.305],[100.467,0.315],[100.429,0.422],[100.346,0.381],[100.276,0.412],[100.224,0.503],[100.198,0.626],[100.274,0.677],[100.262,0.733],[100.181,0.762]]]]}},{"type":"Feature","properties":{"geo_id":"ID-14","name":"Riau"},"geometry":{"type":"MultiPolygon","coordinates":[[[[100.181,0.762],[100.262,0.733],[100.274,0.677],[100.198,0.626],[100.224,0.503],[100.276,0.412],[100.346,0.381],[100.429,0.422],[100.467,0.315],[100.559,0.305],[100.647,0.203],[100.701,0.238],[100.815,0.261],[100.843,0.223],[100.842,-0.007],[100.746,-0.052],[100.774,-0.213],[100.838,-0.284],[100.845,-0.343],[100.992,-0.316],[101.067,-0.504],[101.178,-0.542],[101.255,-0.625],[101.315,-0.633],[101.449,-0.765],[101.588,-0.847],[101.648,-0.824],[101.732,-0.871],[101.698,-0.936],[101.824,-0.978],[101.908,-0.952],[101.986,-0.881],[102.146,-0.9],[102.216,-0.945],[102.278,-0.916],[102.474,-1.071],[102.632,-1.124],[102.782,-1.023],[102.784,-0.982],[102.928,-0.866],[103.004,-0.755],[103.112,-0.747],[103.303,-0.766],[103.353,-0.799],[103.431,-0.778],[103.441,-0.732],[103.407,-0.647],[103.438,-0.539],[103.544,-0.504],[103.598,-0.449],[103.584,-0.401],[103.697,-0.356],[103.76,-0.3],[103.64,-0.225],[103.512,-0.202],[103.474,-0.102],[103.581,-0.062],[103.614,-0.006],[103.685,-0.028],[103.81,0.009],[103.742,0.247],[103.681,0.323],[103.603,0.346],[103.58,0.398],[103.412,0.522],[103.326,0.545],[103.196,0.475],[103.11,0.385],[103.096,0.495],[102.915,0.713],[102.676,0.756],[102.607,0.74],[102.498,0.754],[102.404,0.815],[102.34,0.9],[102.229,0.995],[102.191,1.094],[102.209,1.189],[102.151,1.271],[102.159,1.362],[101.873,1.562],[101.762,1.66],[101.528,1.647],[101.393,1.713],[101.356,1.786],[101.303,2.042],[101.076,2.215],[101.046,2.292],[100.934,2.305],[100.804,2.295],[100.76,2.251],[100.789,2.119],[100.763,2.086],[100.568,2.156],[100.44,2.259],[100.347,2.428],[100.322,2.548],[100.299,2.443],[100.311,2.355],[100.373,2.224],[100.321,2.037],[100.318,1.902],[100.289,1.799],[100.417,1.655],[100.422,1.485],[100.301,1.417],[100.181,1.417],[100.053,1.38],[100.126,1.256],[100.111,1.222],[100.151,0.936],[100.122,0.821],[100.181,0.762]]],[[[102.569,0.768],[102.654,0.789],[102.857,0.794],[102.933,0.765],[102.995,0.689],[103.049,0.721],[103.046,0.825],[102.877,0.953],[102.734,1.022],[102.645,0.991],[102.608,1.003],[102.589,1.001],[102.556,0.97],[102.538,0.966],[102.475,0.928],[102.447,0.937],[102.411,0.892],[102.437,0.826],[102.569,0.768]]],[[[102.894,0.961],[103.071,0.832],[103.153,0.895],[102.982,1.09],[102.77,1.159],[102.689,1.12],[102.727,1.04],[102.894,0.961]]],[[[102.49,0.976],[102.501,0.945],[102.539,0.967],[102.557,0.971],[102.578,0.994],[102.607,1.005],[102.614,1.047],[102.537,1.13],[102.46,1.065],[102.49,0.976]]],[[[102.225,1.243],[102.236,1.101],[102.276,1.006],[102.393,0.913],[102.483,0.952],[102.439,1.071],[102.485,1.238],[102.292,1.412],[102.214,1.414],[102.225,1.243]]],[[[102.119,1.46],[102.286,1.433],[102.398,1.323],[102.509,1.262],[102.489,1.443],[102.46,1.518],[102.335,1.552],[102.186,1.569],[102.065,1.604],[102.026,1.539],[102.119,1.46]]],[[[101.421,1.82],[101.454,1.727],[101.619,1.69],[101.735,1.771],[101.779,1.982],[101.704,2.097],[101.656,2.125],[101.525,2.036],[101.474,2.066],[101.397,2.004],[101.384,1.906],[101.421,1.82]]],[[[103.206,0.52],[103.285,0.53],[103.295,0.624],[103.206,0.702],[103.15,0.665],[103.138,0.568],[103.206,0.52]]]]}},{"type":"Feature","properties":{"geo_id":"ID-15","name":"Jambi"},"geometry":{"type":"Polygon","coordinates":[[[101.824,-0.978],[101.831,-1.111],[101.884,-1.133],[101.816,-1.218],[101.727,-1.235],[101.694,-1.307],[101.728,-1.355],[101.68,-1.498],[101.486,-1.649],[101.477,-1.677],[101.337,-1.681],[101.216,-1.725],[101.131,-1.727],[101.138,-1.899],[101.261,-2.102],[101.293,-2.289],[101.556,-2.448],[101.569,-2.548],[101.677,-2.533],[101.773,-2.649],[101.906,-2.74],[101.997,-2.724],[102.064,-2.769],[102.237,-2.69],[102.271,-2.624],[102.469,-2.704],[102.581,-2.678],[102.713,-2.571],[102.778,-2.554],[102.879,-2.424],[102.844,-2.374],[102.893,-2.317],[103.119,-2.354],[103.211,-2.32],[103.167,-2.229],[103.187,-2.184],[103.278,-2.148],[103.301,-2.222],[103.438,-2.342],[103.46,-2.178],[103.544,-2.144],[103.564,-2.017],[103.5,-1.982],[103.521,-1.907],[103.63,-1.841],[104.022,-1.753],[104.406,-1.629],[104.491,-1.668],[104.438,-1.505],[104.455,-1.332],[104.393,-1.217],[104.394,-1.076],[104.329,-1.043],[104.202,-1.07],[104.032,-1.002],[103.915,-0.983],[103.835,-1.01],[103.629,-0.913],[103.489,-0.803],[103.441,-0.732],[103.431,-0.778],[103.353,-0.799],[103.303,-0.766],[103.112,-0.747],[103.004,-0.755],[102.928,-0.866],[102.784,-0.982],[102.782,-1.023],[102.632,-1.124],[102.474,-1.071],[102.278,-0.916],[102.216,-0.945],[102.146,-0.9],[101.986,-0.881],[101.908,-0.952],[101.824,-0.978]]]}},{"type":"Feature","properties":{"geo_id":"ID-16","name":"Sumatera Selatan"},"geometry":{"type":"MultiPolygon","coordinates":[[[[102.064,-2.769],[102.131,-2.875],[102.224,-2.931],[102.243,-3.02],[102.318,-3.07],[102.387,-3.044],[102.481,-3.106],[102.494,-3.268],[102.57,-3.279],[102.618,-3.329],[102.79,-3.298],[102.798,-3.332],[102.912,-3.378],[102.988,-3.369],[102.995,-3.525],[102.907,-3.616],[102.848,-3.537],[102.771,-3.708],[102.657,-3.772],[102.661,-3.818],[102.792,-3.956],[102.979,-4.043],[102.919,-4.093],[103.059,-4.195],[103.068,-4.257],[103.191,-4.236],[103.289,-4.262],[103.451,-4.35],[103.407,-4.501],[103.483,-4.577],[103.593,-4.523],[103.708,-4.696],[103.79,-4.779],[103.869,-4.856],[103.962,-4.91],[104.122,-4.924],[104.191,-4.863],[104.263,-4.881],[104.354,-4.851],[104.313,-4.779],[104.302,-4.639],[104.341,-4.602],[104.322,-4.458],[104.347,-4.4],[104.45,-4.298],[104.621,-4.226],[104.793,-4.267],[105.049,-4.142],[105.143,-3.933],[105.278,-3.876],[105.355,-3.794],[105.411,-3.777],[105.573,-3.899],[105.652,-4.087],[105.743,-4.144],[105.821,-4.157],[105.881,-3.985],[105.957,-3.852],[105.916,-3.768],[105.831,-3.711],[105.839,-3.551],[105.917,-3.384],[105.983,-3.314],[106.084,-3.262],[106.048,-3.121],[106.047,-2.995],[106.012,-2.968],[105.883,-2.966],[105.793,-2.888],[105.782,-2.69],[105.66,-2.667],[105.611,-2.598],[105.634,-2.436],[105.488,-2.388],[105.297,-2.374],[105.203,-2.327],[105.108,-2.371],[104.998,-2.331],[104.91,-2.336],[104.799,-2.272],[104.907,-2.18],[104.876,-2.049],[104.828,-2.004],[104.611,-2.006],[104.578,-2.005],[104.504,-1.969],[104.472,-1.913],[104.484,-1.788],[104.526,-1.712],[104.491,-1.668],[104.406,-1.629],[104.022,-1.753],[103.63,-1.841],[103.521,-1.907],[103.5,-1.982],[103.564,-2.017],[103.544,-2.144],[103.46,-2.178],[103.438,-2.342],[103.301,-2.222],[103.278,-2.148],[103.187,-2.184],[103.167,-2.229],[103.211,-2.32],[103.119,-2.354],[102.893,-2.317],[102.844,-2.374],[102.879,-2.424],[102.778,-2.554],[102.713,-2.571],[102.581,-2.678],[102.469,-2.704],[102.271,-2.624],[102.237,-2.69],[102.064,-2.769]]],[[[104.556,-1.855],[104.508,-1.968],[104.565,-1.998],[104.639,-1.917],[104.556,-1.855]]]]}},{"type":"Feature","properties":{"geo_id":"ID-17","name":"Bengkulu"},"geometry":{"type":"MultiPolygon","coordinates":[[[[102.197,-5.416],[102.252,-5.482],[102.359,-5.506],[102.381,-5.386],[102.285,-5.357],[102.163,-5.29],[102.086,-5.34],[102.197,-5.416]]],[[[101.022,-2.478],[101.142,-2.629],[101.32,-2.736],[101.413,-2.94],[101.481,-3.012],[101.521,-3.114],[101.622,-3.245],[101.796,-3.371],[101.896,-3.428],[101.93,-3.479],[102.095,-3.563],[102.237,-3.684],[102.308,-3.895],[102.279,-3.962],[102.796,-4.355],[102.904,-4.491],[102.982,-4.512],[103.154,-4.602],[103.284,-4.711],[103.328,-4.808],[103.409,-4.862],[103.499,-4.875],[103.596,-4.922],[103.731,-4.799],[103.79,-4.779],[103.708,-4.696],[103.593,-4.523],[103.483,-4.577],[103.407,-4.501],[103.451,-4.35],[103.289,-4.262],[103.191,-4.236],[103.068,-4.257],[103.059,-4.195],[102.919,-4.093],[102.979,-4.043],[102.792,-3.956],[102.661,-3.818],[102.657,-3.772],[102.771,-3.708],[102.848,-3.537],[102.907,-3.616],[102.995,-3.525],[102.988,-3.369],[102.912,-3.378],[102.798,-3.332],[102.79,-3.298],[102.618,-3.329],[102.57,-3.279],[102.494,-3.268],[102.481,-3.106],[102.387,-3.044],[102.318,-3.07],[102.243,-3.02],[102.224,-2.931],[102.131,-2.875],[102.064,-2.769],[101.997,-2.724],[101.906,-2.74],[101.773,-2.649],[101.677,-2.533],[101.569,-2.548],[101.556,-2.448],[101.293,-2.289],[101.238,-2.339],[101.022,-2.478]]]]}},{"type":"Feature","properties":{"geo_id":"ID-18","name":"Lampung"},"geometry":{"type":"Polygon","coordinates":[[[103.596,-4.922],[103.711,-4.963],[103.77,-5.03],[103.91,-5.126],[103.907,-5.209],[103.987,-5.258],[104.12,-5.457],[104.178,-5.482],[104.311,-5.591],[104.303,-5.642],[104.38,-5.68],[104.563,-5.864],[104.593,-5.938],[104.729,-5.933],[104.711,-5.833],[104.645,-5.743],[104.648,-5.701],[104.533,-5.546],[104.604,-5.496],[104.708,-5.522],[104.778,-5.605],[104.928,-5.696],[105.034,-5.732],[105.149,-5.809],[105.198,-5.718],[105.167,-5.606],[105.253,-5.563],[105.255,-5.461],[105.291,-5.447],[105.409,-5.622],[105.534,-5.671],[105.59,-5.735],[105.605,-5.83],[105.752,-5.873],[105.79,-5.807],[105.826,-5.579],[105.818,-5.352],[105.864,-5.255],[105.857,-5.073],[105.9,-4.923],[105.861,-4.817],[105.874,-4.717],[105.913,-4.647],[105.89,-4.438],[105.814,-4.3],[105.821,-4.157],[105.743,-4.144],[105.652,-4.087],[105.573,-3.899],[105.411,-3.777],[105.355,-3.794],[105.278,-3.876],[105.143,-3.933],[105.049,-4.142],[104.793,-4.267],[104.621,-4.226],[104.45,-4.298],[104.347,-4.4],[104.322,-4.458],[104.341,-4.602],[104.302,-4.639],[104.313,-4.779],[104.354,-4.851],[104.263,-4.881],[104.191,-4.863],[104.122,-4.924],[103.962,-4.91],[103.869,-4.856],[103.79,-4.779],[103.731,-4.799],[103.596,-4.922]]]}},{"type":"Feature","properties":{"geo_id":"ID-19","name":"Kepulauan Bangka Belitung"},"geometry":{"type":"MultiPolygon","coordinates":[[[[105.399,-2.127],[105.539,-2.079],[105.592,-2.123],[105.729,-2.127],[105.785,-2.166],[105.787,-2.249],[105.825,-2.308],[105.803,-2.367],[105.935,-2.481],[105.888,-2.638],[105.92,-2.743],[105.967,-2.815],[106.094,-2.837],[106.148,-2.875],[106.277,-2.902],[106.35,-2.97],[106.43,-2.974],[106.498,-3.064],[106.736,-3.087],[106.729,-3.032],[106.596,-2.95],[106.604,-2.859],[106.709,-2.643],[106.811,-2.578],[106.698,-2.542],[106.358,-2.466],[106.237,-2.328],[106.177,-2.144],[106.15,-1.994],[106.148,-1.866],[106.021,-1.639],[106.048,-1.601],[105.91,-1.532],[105.746,-1.531],[105.72,-1.579],[105.74,-1.687],[105.789,-1.756],[105.695,-1.781],[105.661,-1.714],[105.717,-1.654],[105.629,-1.628],[105.605,-1.53],[105.471,-1.561],[105.343,-1.701],[105.4,-1.75],[105.373,-1.822],[105.264,-1.897],[105.163,-1.929],[105.109,-2.023],[105.125,-2.075],[105.226,-2.065],[105.301,-2.154],[105.399,-2.127]]],[[[106.846,-2.918],[106.808,-2.887],[106.718,-2.97],[106.856,-3.039],[106.911,-2.947],[106.846,-2.918]]],[[[107.427,-2.929],[107.47,-2.907],[107.468,-2.823],[107.38,-2.849],[107.427,-2.929]]],[[[107.666,-3.214],[107.837,-3.157],[107.842,-3.063],[107.959,-3.16],[107.967,-3.246],[108.064,-3.239],[108.079,-3.171],[108.153,-3.171],[108.217,-3.054],[108.207,-3.017],[108.294,-2.879],[108.27,-2.751],[108.087,-2.605],[107.989,-2.572],[107.905,-2.574],[107.819,-2.529],[107.762,-2.558],[107.658,-2.56],[107.612,-2.702],[107.6,-2.933],[107.561,-2.998],[107.666,-3.214]]]]}},{"type":"Feature","properties":{"geo_id":"ID-21","name":"Kepulauan Riau"},"geometry":{"type":"MultiPolygon","coordinates":[[[[103.463,0.647],[103.51,0.762],[103.411,0.846],[103.352,0.844],[103.352,0.747],[103.437,0.636],[103.463,0.647]]],[[[103.439,0.988],[103.351,1.135],[103.328,1.019],[103.439,0.988]]],[[[103.966,0.969],[103.853,1.034],[103.837,0.972],[103.943,0.926],[103.966,0.969]]],[[[103.945,1.008],[104.034,0.98],[104.133,1.034],[104.139,1.169],[104.015,1.192],[103.988,1.131],[103.922,1.143],[103.911,1.038],[103.945,1.008]]],[[[104.259,-0.476],[104.318,-0.537],[104.342,-0.656],[104.399,-0.6],[104.508,-0.596],[104.6,-0.469],[104.478,-0.336],[104.385,-0.413],[104.278,-0.396],[104.259,-0.476]]],[[[104.23,1.053],[104.262,1],[104.374,1.01],[104.438,0.909],[104.557,0.814],[104.611,0.833],[104.66,0.941],[104.632,1.11],[104.532,1.178],[104.401,1.202],[104.245,1.12],[104.23,1.053]]],[[[104.528,-0.269],[104.704,-0.205],[104.837,-0.315],[104.909,-0.329],[104.891,-0.225],[104.752,-0.19],[104.736,-0.148],[104.562,0.019],[104.509,-0.056],[104.429,-0.237],[104.528,-0.269]]],[[[105.787,2.904],[105.829,2.989],[105.713,2.983],[105.693,2.855],[105.759,2.834],[105.787,2.904]]],[[[108.871,3.009],[108.776,2.878],[108.876,2.881],[108.871,3.009]]],[[[108.102,3.823],[108.146,3.659],[108.306,3.67],[108.304,3.717],[108.397,3.827],[108.402,3.958],[108.23,4.14],[108.228,4.197],[108.074,4.068],[107.974,4.014],[107.99,3.943],[108.065,3.834],[108.102,3.823]]]]}},{"type":"Feature","properties":{"geo_id":"ID-31","name":"DKI Jakarta"},"geometry":{"type":"Polygon","coordinates":[[[106.725,-6.09],[106.724,-6.192],[106.78,-6.317],[106.896,-6.372],[106.973,-6.189],[106.97,-6.091],[106.829,-6.121],[106.725,-6.09]]]}},{"type":"Feature","properties":{"geo_id":"ID-32","name":"Jawa Barat"},"geometry":{"type":"Polygon","coordinates":[[[106.397,-6.978],[106.443,-6.953],[106.542,-6.984],[106.544,-7.056],[106.401,-7.187],[106.373,-7.308],[106.404,-7.356],[106.524,-7.408],[106.781,-7.437],[107.086,-7.453],[107.24,-7.488],[107.443,-7.507],[107.598,-7.57],[107.694,-7.669],[107.783,-7.679],[107.847,-7.737],[107.943,-7.734],[108.145,-7.786],[108.433,-7.821],[108.496,-7.793],[108.517,-7.699],[108.801,-7.673],[108.737,-7.61],[108.755,-7.559],[108.718,-7.427],[108.656,-7.339],[108.6,-7.35],[108.557,-7.287],[108.562,-7.171],[108.635,-7.139],[108.697,-7.152],[108.767,-7.113],[108.792,-7.003],[108.765,-6.894],[108.831,-6.785],[108.75,-6.815],[108.612,-6.768],[108.562,-6.692],[108.535,-6.481],[108.483,-6.459],[108.38,-6.348],[108.362,-6.261],[108.253,-6.248],[108.156,-6.317],[108.098,-6.329],[107.902,-6.242],[107.884,-6.185],[107.73,-6.236],[107.621,-6.188],[107.473,-6.149],[107.346,-5.972],[107.266,-5.961],[107.187,-5.988],[107.033,-5.957],[106.97,-6.091],[106.973,-6.189],[106.896,-6.372],[106.78,-6.317],[106.769,-6.362],[106.604,-6.362],[106.573,-6.339],[106.427,-6.348],[106.451,-6.414],[106.404,-6.454],[106.43,-6.58],[106.429,-6.68],[106.467,-6.751],[106.393,-6.9],[106.397,-6.978]]]}},{"type":"Feature","properties":{"geo_id":"ID-33","name":"Jawa Tengah"},"geometry":{"type":"Polygon","coordinates":[[[108.801,-7.673],[109,-7.744],[109.107,-7.683],[109.382,-7.72],[109.468,-7.758],[109.863,-7.84],[110.004,-7.888],[110.131,-7.739],[110.15,-7.647],[110.304,-7.655],[110.445,-7.541],[110.492,-7.742],[110.531,-7.797],[110.786,-7.817],[110.756,-8.024],[110.835,-8.203],[110.9,-8.211],[110.895,-8.167],[110.951,-8.071],[111.112,-8.063],[111.154,-7.922],[111.266,-7.935],[111.303,-7.838],[111.275,-7.737],[111.182,-7.691],[111.12,-7.41],[111.15,-7.26],[111.222,-7.253],[111.372,-7.341],[111.455,-7.257],[111.522,-7.237],[111.612,-7.138],[111.615,-6.833],[111.691,-6.754],[111.562,-6.639],[111.493,-6.621],[111.382,-6.702],[111.241,-6.691],[111.127,-6.638],[111.064,-6.52],[111.046,-6.427],[110.837,-6.408],[110.714,-6.458],[110.654,-6.553],[110.647,-6.646],[110.612,-6.712],[110.54,-6.756],[110.559,-6.805],[110.456,-6.954],[110.26,-6.912],[110.179,-6.848],[110.113,-6.888],[109.974,-6.924],[109.87,-6.915],[109.566,-6.832],[109.507,-6.791],[109.391,-6.859],[109.304,-6.872],[109.098,-6.838],[109.053,-6.79],[108.946,-6.824],[108.831,-6.785],[108.765,-6.894],[108.792,-7.003],[108.767,-7.113],[108.697,-7.152],[108.635,-7.139],[108.562,-7.171],[108.557,-7.287],[108.6,-7.35],[108.656,-7.339],[108.718,-7.427],[108.755,-7.559],[108.737,-7.61],[108.801,-7.673]]]}},{"type":"Feature","properties":{"geo_id":"ID-34","name":"DI Yogyakarta"},"geometry":{"type":"Polygon","coordinates":[[[110.004,-7.888],[110.206,-7.983],[110.345,-8.031],[110.376,-8.071],[110.604,-8.145],[110.719,-8.199],[110.835,-8.203],[110.756,-8.024],[110.786,-7.817],[110.531,-7.797],[110.492,-7.742],[110.445,-7.541],[110.304,-7.655],[110.15,-7.647],[110.131,-7.739],[110.004,-7.888]]]}},{"type":"Feature","properties":{"geo_id":"ID-35","name":"Jawa Timur"},"geometry":{"type":"MultiPolygon","coordinates":[[[[110.9,-8.211],[111.028,-8.257],[111.106,-8.233],[111.146,-8.279],[111.27,-8.249],[111.399,-8.277],[111.512,-8.333],[111.55,-8.306],[111.683,-8.375],[111.725,-8.287],[111.795,-8.255],[111.906,-8.303],[111.98,-8.284],[112.035,-8.319],[112.14,-8.315],[112.255,-8.343],[112.323,-8.332],[112.444,-8.398],[112.553,-8.402],[112.672,-8.445],[112.711,-8.417],[112.872,-8.408],[112.984,-8.321],[113.09,-8.287],[113.238,-8.285],[113.335,-8.327],[113.388,-8.4],[113.441,-8.378],[113.522,-8.428],[113.709,-8.481],[113.75,-8.518],[113.909,-8.579],[114.221,-8.645],[114.312,-8.621],[114.418,-8.749],[114.532,-8.78],[114.605,-8.717],[114.562,-8.657],[114.423,-8.605],[114.342,-8.438],[114.398,-8.123],[114.43,-8.065],[114.423,-7.917],[114.465,-7.886],[114.453,-7.804],[114.379,-7.756],[114.296,-7.748],[114.239,-7.698],[114.101,-7.702],[114.047,-7.609],[113.931,-7.701],[113.867,-7.682],[113.751,-7.736],[113.668,-7.737],[113.486,-7.699],[113.438,-7.734],[113.277,-7.782],[113.224,-7.736],[113.108,-7.721],[113.05,-7.657],[112.903,-7.626],[112.842,-7.477],[112.846,-7.286],[112.759,-7.196],[112.685,-7.226],[112.634,-7.098],[112.65,-7.02],[112.584,-6.889],[112.52,-6.906],[112.423,-6.864],[112.223,-6.873],[112.123,-6.903],[112.045,-6.88],[111.961,-6.761],[111.829,-6.8],[111.691,-6.754],[111.615,-6.833],[111.612,-7.138],[111.522,-7.237],[111.455,-7.257],[111.372,-7.341],[111.222,-7.253],[111.15,-7.26],[111.12,-7.41],[111.182,-7.691],[111.275,-7.737],[111.303,-7.838],[111.266,-7.935],[111.154,-7.922],[111.112,-8.063],[110.951,-8.071],[110.895,-8.167],[110.9,-8.211]]],[[[112.594,-5.854],[112.7,-5.853],[112.741,-5.789],[112.645,-5.731],[112.59,-5.778],[112.594,-5.854]]],[[[112.692,-7.154],[112.865,-7.162],[113.101,-7.229],[113.326,-7.214],[113.549,-7.233],[113.589,-7.139],[113.678,-7.109],[113.816,-7.133],[113.921,-7.043],[114.06,-7.003],[114.103,-6.938],[113.967,-6.873],[113.484,-6.897],[113.438,-6.888],[113.136,-6.894],[113.01,-6.881],[112.858,-6.894],[112.785,-6.988],[112.674,-7.074],[112.692,-7.154]]],[[[114.383,-7.181],[114.368,-7.084],[114.275,-7.083],[114.313,-7.16],[114.383,-7.181]]],[[[115.353,-6.942],[115.455,-6.913],[115.548,-6.966],[115.56,-6.906],[115.394,-6.835],[115.244,-6.828],[115.203,-6.937],[115.266,-6.994],[115.353,-6.942]]]]}},{"type":"Feature","properties":{"geo_id":"ID-36","name":"Banten"},"geometry":{"type":"MultiPolygon","coordinates":[[[[105.262,-6.522],[105.162,-6.574],[105.243,-6.636],[105.262,-6.522]]],[[[106.725,-6.09],[106.649,-6.005],[106.486,-6.048],[106.411,-6.024],[106.35,-5.964],[106.244,-5.967],[106.225,-6.013],[106.117,-6.007],[106.114,-5.93],[106.019,-5.891],[105.996,-5.975],[105.881,-6.077],[105.825,-6.24],[105.841,-6.3],[105.825,-6.426],[105.772,-6.516],[105.687,-6.522],[105.616,-6.559],[105.618,-6.616],[105.507,-6.73],[105.468,-6.828],[105.375,-6.655],[105.259,-6.762],[105.538,-6.874],[105.625,-6.843],[105.773,-6.848],[105.993,-6.814],[106.096,-6.876],[106.238,-6.931],[106.246,-6.961],[106.397,-6.978],[106.393,-6.9],[106.467,-6.751],[106.429,-6.68],[106.43,-6.58],[106.404,-6.454],[106.451,-6.414],[106.427,-6.348],[106.573,-6.339],[106.604,-6.362],[106.769,-6.362],[106.78,-6.317],[106.724,-6.192],[106.725,-6.09]]]]}},{"type":"Feature","properties":{"geo_id":"ID-51","name":"Bali"},"geometry":{"type":"MultiPolygon","coordinates":[[[[114.926,-8.472],[115.138,-8.665],[115.168,-8.758],[115.264,-8.707],[115.27,-8.654],[115.37,-8.575],[115.448,-8.571],[115.58,-8.514],[115.711,-8.4],[115.557,-8.231],[115.34,-8.112],[115.159,-8.064],[114.983,-8.181],[114.862,-8.196],[114.494,-8.096],[114.439,-8.095],[114.448,-8.219],[114.587,-8.401],[114.732,-8.396],[114.926,-8.472]]],[[[115.485,-8.76],[115.587,-8.819],[115.629,-8.77],[115.563,-8.672],[115.49,-8.674],[115.485,-8.76]]]]}},{"type":"Feature","properties":{"geo_id":"ID-52","name":"Nusa Tenggara Barat"},"geometry":{"type":"MultiPolygon","coordinates":[[[[116.107,-8.872],[116.166,-8.905],[116.324,-8.908],[116.397,-8.937],[116.57,-8.891],[116.495,-8.814],[116.624,-8.604],[116.667,-8.556],[116.662,-8.486],[116.711,-8.443],[116.718,-8.348],[116.651,-8.288],[116.46,-8.227],[116.349,-8.211],[116.27,-8.245],[116.179,-8.339],[116.033,-8.446],[116.067,-8.531],[116.072,-8.668],[116.051,-8.762],[115.973,-8.733],[115.835,-8.811],[115.945,-8.841],[116.004,-8.903],[116.107,-8.872]]],[[[116.948,-9.057],[117.009,-9.106],[117.135,-9.084],[117.176,-9.024],[117.39,-9.052],[117.594,-8.981],[117.676,-8.925],[117.896,-8.922],[118.07,-8.841],[118.127,-8.878],[118.185,-8.854],[118.354,-8.685],[118.38,-8.83],[118.451,-8.885],[118.52,-8.876],[118.638,-8.814],[118.75,-8.796],[118.844,-8.843],[118.937,-8.832],[118.909,-8.765],[118.76,-8.768],[118.765,-8.694],[118.85,-8.728],[118.908,-8.68],[118.966,-8.744],[119.101,-8.751],[119.172,-8.694],[119.128,-8.622],[119.036,-8.642],[119.013,-8.539],[119.05,-8.465],[118.995,-8.383],[119.004,-8.314],[118.835,-8.281],[118.765,-8.31],[118.701,-8.391],[118.646,-8.29],[118.462,-8.249],[118.389,-8.329],[118.28,-8.365],[118.234,-8.332],[118.148,-8.202],[118.147,-8.141],[118.081,-8.1],[117.952,-8.103],[117.924,-8.08],[117.74,-8.156],[117.712,-8.243],[117.83,-8.373],[117.986,-8.466],[118.082,-8.451],[118.106,-8.495],[118.273,-8.587],[118.274,-8.653],[118.204,-8.673],[118.141,-8.648],[118.038,-8.672],[117.974,-8.74],[117.871,-8.696],[117.804,-8.727],[117.75,-8.649],[117.756,-8.591],[117.629,-8.552],[117.625,-8.445],[117.567,-8.409],[117.425,-8.421],[117.393,-8.472],[117.155,-8.364],[117.018,-8.48],[116.843,-8.539],[116.77,-8.629],[116.813,-8.819],[116.735,-8.866],[116.739,-8.997],[116.789,-9.036],[116.948,-9.057]]],[[[117.685,-8.187],[117.665,-8.151],[117.559,-8.144],[117.482,-8.186],[117.507,-8.268],[117.471,-8.357],[117.528,-8.389],[117.61,-8.239],[117.685,-8.187]]],[[[119.071,-8.131],[119.012,-8.154],[119,-8.23],[119.051,-8.262],[119.115,-8.224],[119.071,-8.131]]]]}},{"type":"Feature","properties":{"geo_id":"ID-53","name":"Nusa Tenggara Timur"},"geometry":{"type":"MultiPolygon","coordinates":[[[[119.463,-8.435],[119.436,-8.527],[119.389,-8.572],[119.41,-8.647],[119.55,-8.536],[119.47,-8.48],[119.463,-8.435]]],[[[119.331,-9.763],[119.482,-9.745],[119.671,-9.781],[119.708,-9.863],[119.782,-9.919],[119.849,-9.921],[119.995,-10.037],[120.022,-10.1],[120.167,-10.237],[120.347,-10.248],[120.454,-10.313],[120.532,-10.24],[120.605,-10.254],[120.743,-10.186],[120.839,-10.097],[120.846,-10.029],[120.747,-9.924],[120.679,-9.9],[120.597,-9.731],[120.498,-9.678],[120.478,-9.626],[120.351,-9.651],[120.245,-9.634],[120.21,-9.491],[120.078,-9.464],[119.935,-9.276],[119.806,-9.394],[119.686,-9.382],[119.631,-9.346],[119.546,-9.375],[119.477,-9.359],[119.394,-9.383],[119.302,-9.357],[119.154,-9.384],[118.965,-9.482],[118.927,-9.55],[119.026,-9.675],[119.164,-9.742],[119.331,-9.763]]],[[[120.009,-8.818],[120.171,-8.792],[120.232,-8.844],[120.315,-8.855],[120.369,-8.818],[120.599,-8.816],[120.633,-8.857],[120.754,-8.893],[120.838,-8.829],[120.946,-8.94],[121.03,-8.956],[121.17,-8.888],[121.342,-8.905],[121.389,-8.789],[121.592,-8.805],[121.642,-8.85],[121.774,-8.883],[121.883,-8.828],[122.031,-8.794],[122.116,-8.729],[122.377,-8.752],[122.54,-8.701],[122.556,-8.668],[122.677,-8.622],[122.819,-8.597],[122.914,-8.328],[123.021,-8.315],[122.962,-8.195],[122.973,-8.135],[122.866,-8.063],[122.781,-8.112],[122.742,-8.229],[122.866,-8.176],[122.922,-8.195],[122.872,-8.294],[122.812,-8.298],[122.766,-8.363],[122.603,-8.392],[122.547,-8.466],[122.479,-8.604],[122.33,-8.619],[122.296,-8.642],[122.201,-8.604],[122.105,-8.531],[122.01,-8.521],[122.002,-8.45],[121.913,-8.496],[121.8,-8.511],[121.605,-8.494],[121.517,-8.616],[121.467,-8.563],[121.418,-8.592],[121.308,-8.48],[120.99,-8.392],[120.977,-8.347],[120.736,-8.35],[120.632,-8.271],[120.562,-8.301],[120.407,-8.281],[120.261,-8.283],[120.201,-8.305],[120.113,-8.438],[120.022,-8.382],[119.992,-8.46],[119.881,-8.48],[119.804,-8.573],[119.801,-8.763],[119.837,-8.801],[120.009,-8.818]]],[[[121.755,-10.613],[121.875,-10.618],[121.997,-10.523],[122,-10.444],[121.911,-10.419],[121.841,-10.489],[121.685,-10.575],[121.755,-10.613]]],[[[122.833,-10.93],[122.94,-10.911],[122.989,-10.861],[123.189,-10.837],[123.253,-10.734],[123.425,-10.657],[123.389,-10.597],[123.37,-10.478],[123.263,-10.521],[123.178,-10.637],[123.129,-10.643],[123.042,-10.73],[122.932,-10.738],[122.81,-10.782],[122.833,-10.93]]],[[[122.944,-8.583],[123.022,-8.477],[122.976,-8.436],[122.882,-8.531],[122.944,-8.583]]],[[[122.999,-8.406],[123.179,-8.385],[123.275,-8.395],[123.334,-8.264],[123.21,-8.224],[123.143,-8.239],[123.029,-8.312],[122.999,-8.406]]],[[[123.352,-10.306],[123.391,-10.222],[123.503,-10.183],[123.451,-10.114],[123.396,-10.135],[123.349,-10.227],[123.352,-10.306]]],[[[123.516,-10.34],[123.704,-10.366],[123.865,-10.332],[124.017,-10.274],[124.102,-10.18],[124.171,-10.156],[124.396,-10.17],[124.509,-10.092],[124.532,-10.03],[124.751,-9.882],[124.847,-9.738],[124.948,-9.681],[125.009,-9.53],[125.086,-9.463],[125.079,-9.39],[124.985,-9.251],[125.014,-9.169],[125.175,-9.174],[125.181,-9.021],[125.117,-8.97],[125,-9.064],[124.944,-9.049],[124.927,-8.966],[124.816,-9.002],[124.616,-9.153],[124.478,-9.176],[124.438,-9.33],[124.379,-9.361],[124.355,-9.485],[124.294,-9.493],[124.272,-9.412],[124.217,-9.366],[124.155,-9.422],[124.099,-9.409],[124.078,-9.327],[123.995,-9.342],[123.933,-9.423],[123.736,-9.566],[123.674,-9.628],[123.67,-9.828],[123.579,-9.943],[123.586,-10.035],[123.692,-10.011],[123.771,-10.043],[123.741,-10.099],[123.65,-10.145],[123.535,-10.174],[123.455,-10.349],[123.516,-10.34]]],[[[123.289,-8.548],[123.387,-8.584],[123.612,-8.422],[123.67,-8.43],[123.756,-8.297],[123.914,-8.258],[123.772,-8.171],[123.699,-8.254],[123.627,-8.249],[123.575,-8.288],[123.567,-8.365],[123.5,-8.351],[123.558,-8.241],[123.481,-8.247],[123.432,-8.299],[123.435,-8.367],[123.332,-8.404],[123.207,-8.534],[123.289,-8.548]]],[[[124.102,-8.544],[124.212,-8.461],[124.249,-8.359],[124.302,-8.33],[124.323,-8.184],[124.278,-8.176],[124.133,-8.345],[124.059,-8.293],[123.964,-8.35],[123.936,-8.422],[124.034,-8.421],[124.065,-8.551],[124.102,-8.544]]],[[[124.471,-8.434],[124.592,-8.432],[124.657,-8.391],[124.787,-8.402],[124.881,-8.366],[125.123,-8.338],[125.142,-8.253],[125.098,-8.15],[124.814,-8.164],[124.692,-8.158],[124.609,-8.197],[124.598,-8.123],[124.472,-8.132],[124.402,-8.215],[124.405,-8.319],[124.341,-8.398],[124.371,-8.443],[124.471,-8.434]]]]}},{"type":"Feature","properties":{"geo_id":"ID-61","name":"Kalimantan Barat"},"geometry":{"type":"MultiPolygon","coordinates":[[[[108.952,-1.566],[108.899,-1.535],[108.829,-1.608],[108.858,-1.677],[108.958,-1.639],[108.952,-1.566]]],[[[109.241,-0.82],[109.3,-0.901],[109.429,-0.856],[109.594,-0.909],[109.622,-0.978],[109.721,-0.974],[109.712,-0.834],[109.676,-0.832],[109.535,-0.738],[109.466,-0.755],[109.391,-0.707],[109.241,-0.694],[109.241,-0.82]]],[[[109.684,-1.207],[109.78,-1.145],[109.756,-1.015],[109.686,-1.019],[109.6,-0.981],[109.488,-0.974],[109.405,-1.28],[109.504,-1.308],[109.684,-1.207]]],[[[114.206,1.41],[114.143,1.466],[113.975,1.45],[113.815,1.366],[113.804,1.3],[113.703,1.266],[113.665,1.224],[113.538,1.323],[113.428,1.286],[113.356,1.357],[113.241,1.393],[113.183,1.377],[113.097,1.443],[113.015,1.405],[112.986,1.452],[113.064,1.553],[112.895,1.588],[112.812,1.54],[112.486,1.58],[112.445,1.539],[112.212,1.45],[112.232,1.379],[112.181,1.306],[112.143,1.135],[111.935,1.122],[111.859,1.004],[111.717,1.007],[111.668,1.043],[111.551,0.956],[111.489,1.035],[111.385,1.015],[111.232,1.086],[111.138,1.05],[110.907,1.029],[110.886,0.978],[110.698,0.884],[110.596,0.858],[110.49,0.877],[110.405,0.953],[110.396,0.998],[110.298,0.996],[110.279,1.052],[110.165,1.196],[110.097,1.199],[110.064,1.263],[109.98,1.299],[109.963,1.403],[109.838,1.422],[109.781,1.509],[109.662,1.617],[109.685,1.782],[109.586,1.792],[109.54,1.926],[109.456,1.977],[109.338,1.943],[109.335,1.829],[109.291,1.781],[109.252,1.66],[109.119,1.579],[109.041,1.485],[109.043,1.364],[108.948,1.165],[108.979,0.981],[108.949,0.899],[108.841,0.815],[108.875,0.708],[108.929,0.624],[108.912,0.474],[108.944,0.435],[108.922,0.325],[109.007,0.301],[109.116,0.216],[109.175,0.075],[109.16,-0.046],[109.188,-0.092],[109.181,-0.194],[109.09,-0.274],[109.114,-0.504],[109.259,-0.599],[109.374,-0.585],[109.418,-0.631],[109.495,-0.624],[109.668,-0.684],[109.635,-0.796],[109.713,-0.829],[109.758,-0.904],[109.732,-0.988],[109.82,-1.084],[109.94,-1.124],[109.917,-1.221],[109.962,-1.277],[110.048,-1.323],[110.072,-1.378],[110.036,-1.523],[110.033,-1.664],[109.958,-1.762],[109.924,-1.857],[110.075,-1.939],[110.12,-2.091],[110.086,-2.242],[110.144,-2.323],[110.149,-2.429],[110.197,-2.524],[110.159,-2.631],[110.217,-2.653],[110.263,-2.815],[110.224,-2.887],[110.303,-2.994],[110.425,-2.893],[110.564,-2.839],[110.634,-2.926],[110.627,-3.029],[110.733,-2.996],[110.756,-2.942],[110.894,-2.87],[110.961,-2.86],[111.033,-2.786],[111.149,-2.74],[111.174,-2.688],[111.132,-2.599],[111.099,-2.467],[111.116,-2.327],[111.025,-2.226],[111.087,-2.046],[111.086,-1.965],[110.992,-1.955],[110.949,-1.869],[111.014,-1.782],[110.994,-1.65],[110.872,-1.621],[111.006,-1.504],[111.072,-1.529],[111.134,-1.445],[111.26,-1.43],[111.4,-1.263],[111.578,-1.169],[111.571,-1.059],[111.616,-1.056],[111.641,-0.968],[111.751,-0.911],[111.821,-0.908],[111.92,-0.837],[112.056,-0.769],[112.083,-0.701],[112.175,-0.726],[112.176,-0.643],[112.233,-0.613],[112.311,-0.721],[112.461,-0.669],[112.503,-0.7],[112.688,-0.654],[112.743,-0.573],[112.832,-0.578],[112.998,-0.503],[113.115,-0.473],[113.218,-0.506],[113.271,-0.425],[113.22,-0.334],[113.284,-0.262],[113.331,-0.151],[113.443,-0.064],[113.396,0.034],[113.414,0.116],[113.315,0.17],[113.287,0.249],[113.357,0.272],[113.45,0.264],[113.586,0.361],[113.655,0.44],[113.662,0.492],[113.798,0.595],[113.842,0.658],[113.895,0.726],[113.874,0.776],[113.926,0.841],[113.872,0.915],[113.893,1.02],[113.985,1.137],[114.128,1.157],[114.163,1.309],[114.155,1.374],[114.206,1.41]]]]}},{"type":"Feature","properties":{"geo_id":"ID-62","name":"Kalimantan Tengah"},"geometry":{"type":"Polygon","coordinates":[[[110.733,-2.996],[110.8,-2.977],[110.977,-3.066],[111.134,-3.018],[111.331,-2.912],[111.412,-2.903],[111.555,-3.011],[111.69,-2.942],[111.718,-2.847],[111.814,-3.001],[111.825,-3.051],[111.798,-3.204],[111.82,-3.375],[111.806,-3.531],[111.89,-3.544],[112.179,-3.344],[112.336,-3.315],[112.563,-3.447],[112.666,-3.375],[112.939,-3.226],[113.009,-3.16],[112.945,-3.102],[113.011,-3.033],[113.168,-3.069],[113.337,-3.275],[113.428,-3.237],[113.45,-3.19],[113.6,-3.166],[113.631,-3.332],[113.586,-3.446],[113.682,-3.469],[113.786,-3.461],[113.949,-3.371],[114.044,-3.346],[114.255,-3.403],[114.352,-3.464],[114.35,-3.349],[114.436,-3.243],[114.424,-3.18],[114.546,-3.068],[114.505,-3],[114.598,-2.816],[114.664,-2.801],[114.679,-2.739],[114.762,-2.72],[114.794,-2.602],[114.935,-2.442],[115.074,-2.351],[115.107,-2.306],[115.248,-2.212],[115.441,-1.942],[115.393,-1.893],[115.321,-1.892],[115.312,-1.796],[115.358,-1.592],[115.468,-1.434],[115.524,-1.43],[115.626,-1.35],[115.759,-1.313],[115.777,-1.231],[115.849,-1.172],[115.766,-1.138],[115.679,-1.009],[115.632,-0.986],[115.554,-0.86],[115.376,-0.875],[115.288,-0.795],[115.381,-0.572],[115.274,-0.455],[115.234,-0.363],[115.257,-0.161],[115.31,-0.118],[115.281,-0.046],[115.166,-0.087],[115.15,-0.139],[115.067,-0.149],[115.012,-0.267],[114.92,-0.233],[114.921,-0.1],[114.892,-0.026],[114.824,-0.036],[114.709,0.074],[114.83,0.192],[114.903,0.318],[115.023,0.33],[115.124,0.37],[115.137,0.425],[115.014,0.599],[114.986,0.732],[114.943,0.773],[114.832,0.755],[114.716,0.701],[114.658,0.699],[114.598,0.632],[114.489,0.57],[114.364,0.53],[114.203,0.54],[114.158,0.678],[114.123,0.695],[113.921,0.644],[113.842,0.658],[113.798,0.595],[113.662,0.492],[113.655,0.44],[113.586,0.361],[113.45,0.264],[113.357,0.272],[113.287,0.249],[113.315,0.17],[113.414,0.116],[113.396,0.034],[113.443,-0.064],[113.331,-0.151],[113.284,-0.262],[113.22,-0.334],[113.271,-0.425],[113.218,-0.506],[113.115,-0.473],[112.998,-0.503],[112.832,-0.578],[112.743,-0.573],[112.688,-0.654],[112.503,-0.7],[112.461,-0.669],[112.311,-0.721],[112.233,-0.613],[112.176,-0.643],[112.175,-0.726],[112.083,-0.701],[112.056,-0.769],[111.92,-0.837],[111.821,-0.908],[111.751,-0.911],[111.641,-0.968],[111.616,-1.056],[111.571,-1.059],[111.578,-1.169],[111.4,-1.263],[111.26,-1.43],[111.134,-1.445],[111.072,-1.529],[111.006,-1.504],[110.872,-1.621],[110.994,-1.65],[111.014,-1.782],[110.949,-1.869],[110.992,-1.955],[111.086,-1.965],[111.087,-2.046],[111.025,-2.226],[111.116,-2.327],[111.099,-2.467],[111.132,-2.599],[111.174,-2.688],[111.149,-2.74],[111.033,-2.786],[110.961,-2.86],[110.894,-2.87],[110.756,-2.942],[110.733,-2.996]]]}},{"type":"Feature","properties":{"geo_id":"ID-63","name":"Kalimantan Selatan"},"geometry":{"type":"MultiPolygon","coordinates":[[[[114.352,-3.464],[114.485,-3.499],[114.554,-3.557],[114.615,-3.649],[114.602,-3.807],[114.638,-4.029],[114.642,-4.175],[114.721,-4.165],[115.02,-4.007],[115.655,-3.743],[115.705,-3.735],[115.851,-3.625],[115.966,-3.61],[116.014,-3.484],[116.031,-3.364],[116.085,-3.285],[116.174,-3.252],[116.166,-3.164],[116.208,-3.129],[116.157,-3.014],[116.103,-3.008],[116.105,-2.917],[116.209,-2.943],[116.27,-3.003],[116.316,-2.947],[116.37,-2.818],[116.369,-2.658],[116.409,-2.59],[116.317,-2.531],[116.475,-2.512],[116.555,-2.409],[116.41,-2.372],[116.236,-2.309],[116.113,-2.338],[116.036,-2.309],[115.894,-2.335],[115.833,-2.297],[115.786,-2.217],[115.808,-2.061],[115.695,-2.04],[115.723,-1.921],[115.728,-1.797],[115.665,-1.707],[115.619,-1.488],[115.688,-1.447],[115.759,-1.313],[115.626,-1.35],[115.524,-1.43],[115.468,-1.434],[115.358,-1.592],[115.312,-1.796],[115.321,-1.892],[115.393,-1.893],[115.441,-1.942],[115.248,-2.212],[115.107,-2.306],[115.074,-2.351],[114.935,-2.442],[114.794,-2.602],[114.762,-2.72],[114.679,-2.739],[114.664,-2.801],[114.598,-2.816],[114.505,-3],[114.546,-3.068],[114.424,-3.18],[114.436,-3.243],[114.35,-3.349],[114.352,-3.464]]],[[[116.1,-4.06],[116.207,-3.953],[116.304,-3.885],[116.272,-3.821],[116.313,-3.774],[116.306,-3.59],[116.273,-3.553],[116.31,-3.456],[116.253,-3.389],[116.257,-3.21],[116.114,-3.308],[116.046,-3.469],[116.037,-3.582],[116.002,-3.638],[116.024,-3.73],[116.082,-3.833],[116.079,-3.925],[116.039,-4.022],[116.1,-4.06]]],[[[116.403,-3.595],[116.435,-3.422],[116.345,-3.452],[116.313,-3.551],[116.403,-3.595]]]]}},{"type":"Feature","properties":{"geo_id":"ID-64","name":"Kalimantan Timur"},"geometry":{"type":"Polygon","coordinates":[[[113.842,0.658],[113.921,0.644],[114.123,0.695],[114.158,0.678],[114.203,0.54],[114.364,0.53],[114.489,0.57],[114.598,0.632],[114.658,0.699],[114.716,0.701],[114.832,0.755],[114.943,0.773],[114.986,0.732],[115.014,0.599],[115.137,0.425],[115.124,0.37],[115.023,0.33],[114.903,0.318],[114.83,0.192],[114.709,0.074],[114.824,-0.036],[114.892,-0.026],[114.921,-0.1],[114.92,-0.233],[115.012,-0.267],[115.067,-0.149],[115.15,-0.139],[115.166,-0.087],[115.281,-0.046],[115.31,-0.118],[115.257,-0.161],[115.234,-0.363],[115.274,-0.455],[115.381,-0.572],[115.288,-0.795],[115.376,-0.875],[115.554,-0.86],[115.632,-0.986],[115.679,-1.009],[115.766,-1.138],[115.849,-1.172],[115.777,-1.231],[115.759,-1.313],[115.688,-1.447],[115.619,-1.488],[115.665,-1.707],[115.728,-1.797],[115.723,-1.921],[115.695,-2.04],[115.808,-2.061],[115.786,-2.217],[115.833,-2.297],[115.894,-2.335],[116.036,-2.309],[116.113,-2.338],[116.236,-2.309],[116.41,-2.372],[116.555,-2.409],[116.595,-2.203],[116.514,-2.166],[116.4,-2.214],[116.393,-2.083],[116.458,-2.062],[116.458,-1.929],[116.427,-1.852],[116.45,-1.773],[116.376,-1.762],[116.263,-1.811],[116.313,-1.704],[116.492,-1.643],[116.558,-1.602],[116.54,-1.465],[116.61,-1.416],[116.762,-1.362],[116.761,-1.291],[116.884,-1.277],[117,-1.201],[117.158,-0.969],[117.249,-0.907],[117.301,-0.646],[117.338,-0.58],[117.412,-0.539],[117.454,-0.447],[117.443,-0.299],[117.417,-0.247],[117.482,-0.069],[117.518,-0.032],[117.485,0.173],[117.528,0.22],[117.601,0.476],[117.707,0.623],[117.752,0.756],[117.888,0.831],[117.968,0.775],[118.028,0.833],[117.897,1.067],[117.984,1.057],[117.991,1.001],[118.065,0.904],[118.322,0.849],[118.385,0.809],[118.443,0.844],[118.546,0.808],[118.677,0.857],[118.795,0.802],[118.865,0.88],[118.964,0.943],[118.989,1.022],[118.872,1.067],[118.782,1.129],[118.765,1.2],[118.58,1.354],[118.43,1.4],[118.407,1.487],[118.246,1.563],[118.115,1.652],[118.048,1.783],[117.929,1.806],[117.832,1.912],[117.812,1.989],[117.714,2.083],[117.69,2.181],[117.819,2.202],[117.933,2.181],[118.011,2.2],[118.098,2.285],[117.988,2.435],[117.864,2.393],[117.812,2.326],[117.721,2.346],[117.613,2.52],[117.415,2.501],[117.308,2.534],[117.27,2.483],[117.134,2.536],[117.048,2.548],[116.97,2.444],[116.924,2.505],[116.845,2.52],[116.753,2.474],[116.714,2.391],[116.629,2.394],[116.557,2.456],[116.491,2.446],[116.504,2.348],[116.455,2.277],[116.357,2.295],[116.29,2.236],[116.349,2.178],[116.286,2.102],[116.22,2.093],[116.185,1.846],[116.133,1.668],[116.036,1.606],[116.006,1.525],[115.854,1.434],[115.857,1.401],[115.764,1.259],[115.595,1.282],[115.427,1.223],[115.381,1.118],[115.278,1.136],[115.242,1.181],[115.122,1.187],[115.045,1.267],[115.017,1.348],[114.902,1.419],[114.795,1.376],[114.722,1.313],[114.69,1.36],[114.617,1.363],[114.565,1.426],[114.414,1.511],[114.206,1.41],[114.155,1.374],[114.163,1.309],[114.128,1.157],[113.985,1.137],[113.893,1.02],[113.872,0.915],[113.926,0.841],[113.874,0.776],[113.895,0.726],[113.842,0.658]]]}},{"type":"Feature","properties":{"geo_id":"ID-65","name":"Kalimantan Utara"},"geometry":{"type":"MultiPolygon","coordinates":[[[[114.565,1.426],[114.617,1.363],[114.69,1.36],[114.722,1.313],[114.795,1.376],[114.902,1.419],[115.017,1.348],[115.045,1.267],[115.122,1.187],[115.242,1.181],[115.278,1.136],[115.381,1.118],[115.427,1.223],[115.595,1.282],[115.764,1.259],[115.857,1.401],[115.854,1.434],[116.006,1.525],[116.036,1.606],[116.133,1.668],[116.185,1.846],[116.22,2.093],[116.286,2.102],[116.349,2.178],[116.29,2.236],[116.357,2.295],[116.455,2.277],[116.504,2.348],[116.491,2.446],[116.557,2.456],[116.629,2.394],[116.714,2.391],[116.753,2.474],[116.845,2.52],[116.924,2.505],[116.97,2.444],[117.048,2.548],[117.134,2.536],[117.27,2.483],[117.308,2.534],[117.415,2.501],[117.613,2.52],[117.721,2.346],[117.812,2.326],[117.864,2.393],[117.988,2.435],[117.812,2.61],[117.785,2.748],[117.728,2.829],[117.69,2.959],[117.477,3.096],[117.444,3.162],[117.334,3.178],[117.4,3.261],[117.517,3.276],[117.505,3.322],[117.415,3.337],[117.355,3.449],[117.255,3.471],[117.218,3.493],[117.194,3.542],[117.226,3.604],[117.37,3.638],[117.428,3.625],[117.52,3.674],[117.577,3.634],[117.734,3.631],[117.815,3.721],[117.734,3.836],[117.669,3.879],[117.598,3.876],[117.499,3.913],[117.458,3.93],[117.464,3.958],[117.438,4.013],[117.535,4.162],[117.468,4.174],[117.372,4.285],[117.2,4.335],[116.974,4.344],[116.901,4.366],[116.843,4.326],[116.751,4.39],[116.701,4.334],[116.642,4.337],[116.564,4.391],[116.479,4.303],[116.348,4.39],[116.261,4.362],[116.16,4.375],[116.072,4.277],[116.031,4.329],[115.928,4.354],[115.87,4.286],[115.766,4.245],[115.681,4.153],[115.677,4.09],[115.626,3.944],[115.571,3.681],[115.609,3.511],[115.543,3.358],[115.518,3.197],[115.562,3.17],[115.485,3.018],[115.248,2.965],[115.148,2.908],[115.118,2.836],[115.14,2.747],[115.106,2.722],[115.114,2.583],[115.17,2.614],[115.251,2.541],[115.204,2.471],[115.148,2.477],[114.948,2.316],[114.917,2.255],[114.799,2.247],[114.822,2.118],[114.799,2.043],[114.881,2.031],[114.791,1.847],[114.706,1.821],[114.705,1.637],[114.61,1.575],[114.616,1.516],[114.565,1.426]]],[[[117.252,3.588],[117.201,3.539],[117.231,3.497],[117.323,3.491],[117.462,3.449],[117.505,3.497],[117.371,3.563],[117.252,3.588]]],[[[117.585,3.293],[117.648,3.241],[117.666,3.415],[117.549,3.442],[117.515,3.381],[117.585,3.293]]],[[[117.538,4.026],[117.443,4.006],[117.497,3.916],[117.565,3.918],[117.606,3.882],[117.682,3.888],[117.597,3.933],[117.538,4.026]]],[[[117.747,4.046],[117.669,4.144],[117.589,4.08],[117.603,4.011],[117.669,3.966],[117.747,4.046]]],[[[117.925,4.061],[117.901,4.167],[117.683,4.167],[117.861,4.029],[117.925,4.061]]]]}},{"type":"Feature","properties":{"geo_id":"ID-71","name":"Sulawesi Utara"},"geometry":{"type":"MultiPolygon","coordinates":[[[[123.474,0.32],[123.613,0.3],[124.081,0.388],[124.288,0.407],[124.324,0.446],[124.45,0.449],[124.503,0.487],[124.498,0.554],[124.559,0.591],[124.555,0.65],[124.716,0.889],[124.892,0.999],[125.024,1.143],[125.078,1.366],[125.146,1.439],[125.229,1.463],[125.245,1.515],[125.169,1.566],[125.132,1.668],[125.016,1.687],[124.998,1.749],[124.806,1.576],[124.843,1.525],[124.681,1.397],[124.624,1.419],[124.532,1.353],[124.515,1.3],[124.591,1.268],[124.577,1.188],[124.384,1.18],[124.297,1.01],[124.204,0.99],[124.137,0.928],[123.971,0.875],[123.935,0.836],[123.735,0.858],[123.618,0.898],[123.555,0.887],[123.262,0.914],[123.195,0.941],[123.121,0.925],[123.152,0.871],[123.271,0.803],[123.246,0.733],[123.383,0.64],[123.486,0.627],[123.533,0.575],[123.548,0.442],[123.474,0.32]]],[[[125.373,2.675],[125.457,2.771],[125.378,2.8],[125.373,2.675]]],[[[125.498,3.468],[125.606,3.372],[125.676,3.427],[125.574,3.592],[125.585,3.621],[125.508,3.723],[125.404,3.719],[125.418,3.64],[125.48,3.605],[125.498,3.468]]],[[[126.692,3.998],[126.791,4.017],[126.808,4.167],[126.911,4.271],[126.848,4.388],[126.856,4.483],[126.738,4.544],[126.734,4.462],[126.681,4.334],[126.716,4.266],[126.789,4.241],[126.75,4.143],[126.67,4.047],[126.692,3.998]]]]}},{"type":"Feature","properties":{"geo_id":"ID-72","name":"Sulawesi Tengah"},"geometry":{"type":"MultiPolygon","coordinates":[[[[119.561,-0.85],[119.557,-1.01],[119.593,-1.125],[119.577,-1.178],[119.468,-1.296],[119.438,-1.378],[119.521,-1.434],[119.643,-1.405],[119.693,-1.473],[119.672,-1.546],[119.737,-1.61],[119.795,-1.74],[119.872,-1.783],[119.87,-2.018],[119.901,-2.055],[119.997,-1.958],[120.073,-1.948],[120.129,-1.995],[120.18,-1.966],[120.29,-2.039],[120.329,-1.997],[120.42,-1.979],[120.48,-2.083],[120.554,-2.024],[120.682,-2.192],[120.743,-2.242],[120.856,-2.223],[121.108,-2.281],[121.085,-2.373],[121.134,-2.408],[121.228,-2.368],[121.469,-2.415],[121.57,-2.491],[121.63,-2.506],[121.72,-2.604],[121.784,-2.642],[121.674,-2.838],[121.67,-2.9],[121.752,-2.924],[121.887,-3.011],[122.039,-3.052],[122.08,-3.092],[122.151,-3.039],[122.257,-3.14],[122.313,-3.164],[122.311,-3.273],[122.428,-3.251],[122.443,-3.142],[122.383,-3.146],[122.252,-3.027],[122.321,-2.921],[122.208,-2.9],[122.14,-2.789],[122.087,-2.79],[122.011,-2.72],[122.016,-2.647],[121.905,-2.43],[121.726,-2.202],[121.551,-2.168],[121.533,-2.062],[121.453,-2],[121.317,-1.937],[121.373,-1.805],[121.46,-1.815],[121.468,-1.863],[121.558,-1.957],[121.676,-1.946],[121.742,-1.889],[121.802,-1.739],[121.867,-1.689],[121.957,-1.68],[122.02,-1.619],[122.22,-1.601],[122.39,-1.495],[122.497,-1.356],[122.631,-1.236],[122.636,-1.175],[122.707,-1.139],[122.799,-1],[122.804,-0.941],[122.975,-0.902],[123.041,-0.91],[123.103,-0.837],[123.141,-0.927],[123.269,-1.045],[123.352,-1.034],[123.447,-0.772],[123.376,-0.64],[123.263,-0.58],[123.058,-0.564],[122.99,-0.622],[122.807,-0.634],[122.802,-0.709],[122.735,-0.81],[122.617,-0.762],[122.524,-0.784],[122.202,-0.788],[122.162,-0.817],[122.149,-0.91],[122.101,-0.962],[122.022,-0.936],[121.947,-0.997],[121.761,-0.971],[121.585,-0.867],[121.48,-0.9],[121.444,-0.978],[121.336,-1.065],[121.205,-1.24],[121.181,-1.326],[121.099,-1.438],[121.034,-1.418],[120.869,-1.414],[120.844,-1.36],[120.762,-1.368],[120.676,-1.415],[120.64,-1.312],[120.571,-1.256],[120.586,-1.114],[120.507,-0.997],[120.412,-0.924],[120.31,-0.966],[120.219,-0.843],[120.114,-0.742],[120.059,-0.629],[120.05,-0.488],[120.072,-0.44],[120.012,-0.292],[120.009,-0.178],[120.033,-0.077],[120.1,-0.016],[120.124,0.163],[120.303,0.418],[120.507,0.513],[120.695,0.511],[120.726,0.476],[120.855,0.442],[120.897,0.396],[121.027,0.44],[121.081,0.398],[121.175,0.459],[121.288,0.496],[121.337,0.474],[121.301,0.571],[121.166,0.669],[121.218,0.791],[121.364,0.809],[121.385,0.855],[121.494,0.839],[121.786,0.94],[121.864,0.991],[121.955,0.907],[122.015,0.909],[122.042,0.987],[122.196,1.039],[122.071,1.064],[121.987,1.023],[121.93,1.102],[121.647,1.053],[121.503,1.091],[121.42,1.186],[121.47,1.265],[121.255,1.23],[121.1,1.316],[121.065,1.302],[120.903,1.356],[120.808,1.325],[120.824,1.175],[120.777,1.107],[120.787,1.031],[120.738,0.979],[120.636,0.939],[120.576,0.776],[120.399,0.791],[120.329,0.851],[120.349,0.985],[120.247,0.957],[120.244,0.818],[120.183,0.759],[120.076,0.742],[120.015,0.661],[120.045,0.513],[119.901,0.479],[119.888,0.392],[119.846,0.334],[119.893,0.287],[119.899,0.217],[119.773,0.198],[119.871,0.098],[119.882,-0.025],[119.821,-0.117],[119.771,-0.107],[119.699,0.002],[119.605,-0.011],[119.653,-0.095],[119.72,-0.146],[119.81,-0.136],[119.818,-0.192],[119.779,-0.277],[119.759,-0.49],[119.824,-0.689],[119.862,-0.718],[119.883,-0.822],[119.838,-0.88],[119.761,-0.681],[119.672,-0.703],[119.679,-0.767],[119.561,-0.85]]],[[[121.669,-0.575],[121.775,-0.498],[121.886,-0.54],[121.915,-0.442],[121.852,-0.409],[121.699,-0.471],[121.669,-0.575]]],[[[121.976,-0.423],[121.98,-0.355],[121.882,-0.346],[121.906,-0.433],[121.976,-0.423]]],[[[122.129,-0.419],[122.151,-0.39],[122.103,-0.292],[122.06,-0.355],[122.129,-0.419]]],[[[123.07,-1.922],[123.144,-1.849],[123.059,-1.83],[123.07,-1.922]]],[[[122.882,-1.6],[123.017,-1.493],[123.038,-1.423],[123.114,-1.307],[123.156,-1.368],[123.185,-1.514],[123.102,-1.575],[123.176,-1.634],[123.242,-1.593],[123.257,-1.442],[123.298,-1.412],[123.41,-1.528],[123.513,-1.454],[123.555,-1.277],[123.364,-1.227],[123.247,-1.39],[123.195,-1.325],[123.247,-1.225],[123.188,-1.15],[123.105,-1.16],[122.966,-1.211],[122.912,-1.18],[122.832,-1.277],[122.787,-1.447],[122.882,-1.6]]],[[[123.489,-1.706],[123.576,-1.725],[123.623,-1.623],[123.563,-1.548],[123.479,-1.548],[123.489,-1.706]]]]}},{"type":"Feature","properties":{"geo_id":"ID-73","name":"Sulawesi Selatan"},"geometry":{"type":"MultiPolygon","coordinates":[[[[120.773,-7.118],[120.673,-7.043],[120.604,-7.075],[120.668,-7.146],[120.773,-7.118]]],[[[120.441,-6.193],[120.525,-6.221],[120.568,-6.056],[120.53,-5.845],[120.462,-5.791],[120.445,-5.959],[120.466,-6.092],[120.441,-6.193]]],[[[119.474,-3.502],[119.511,-3.595],[119.459,-3.644],[119.481,-3.751],[119.538,-3.902],[119.608,-3.982],[119.605,-4.103],[119.638,-4.173],[119.596,-4.248],[119.636,-4.318],[119.581,-4.531],[119.595,-4.561],[119.491,-4.766],[119.525,-4.924],[119.479,-4.989],[119.478,-5.059],[119.386,-5.158],[119.361,-5.411],[119.431,-5.509],[119.594,-5.618],[119.647,-5.682],[119.79,-5.701],[119.93,-5.547],[120.13,-5.588],[120.22,-5.541],[120.341,-5.512],[120.434,-5.612],[120.449,-5.474],[120.401,-5.365],[120.343,-5.301],[120.276,-5.166],[120.306,-5.002],[120.306,-4.868],[120.384,-4.837],[120.411,-4.693],[120.348,-4.425],[120.391,-4.348],[120.366,-4.3],[120.381,-4.175],[120.338,-4.092],[120.361,-4.022],[120.344,-3.893],[120.439,-3.746],[120.418,-3.574],[120.38,-3.499],[120.405,-3.432],[120.382,-3.203],[120.256,-3.161],[120.262,-3.081],[120.193,-2.962],[120.256,-2.946],[120.346,-2.87],[120.447,-2.827],[120.573,-2.705],[120.666,-2.652],[120.816,-2.619],[121.095,-2.723],[120.988,-2.841],[121.01,-2.866],[121.034,-2.791],[121.082,-2.773],[121.153,-2.814],[121.39,-3.015],[121.462,-3.011],[121.5,-2.944],[121.67,-2.9],[121.674,-2.838],[121.784,-2.642],[121.72,-2.604],[121.63,-2.506],[121.57,-2.491],[121.469,-2.415],[121.228,-2.368],[121.134,-2.408],[121.085,-2.373],[121.108,-2.281],[120.856,-2.223],[120.743,-2.242],[120.682,-2.192],[120.554,-2.024],[120.48,-2.083],[120.42,-1.979],[120.329,-1.997],[120.29,-2.039],[120.18,-1.966],[120.129,-1.995],[120.073,-1.948],[119.997,-1.958],[119.901,-2.055],[119.87,-2.018],[119.804,-2.112],[119.714,-2.152],[119.747,-2.222],[119.678,-2.28],[119.688,-2.37],[119.746,-2.536],[119.748,-2.714],[119.682,-2.756],[119.578,-2.754],[119.55,-2.898],[119.565,-2.994],[119.633,-3.11],[119.536,-3.139],[119.387,-3.217],[119.437,-3.276],[119.466,-3.377],[119.474,-3.502]]]]}},{"type":"Feature","properties":{"geo_id":"ID-74","name":"Sulawesi Tenggara"},"geometry":{"type":"MultiPolygon","coordinates":[[[[121.842,-5.335],[121.94,-5.438],[122.046,-5.454],[122.033,-5.348],[122.067,-5.234],[121.991,-5.158],[121.958,-5.06],[121.841,-5.108],[121.8,-5.282],[121.842,-5.335]]],[[[121.01,-2.866],[121.09,-2.923],[121.051,-3.109],[121.056,-3.184],[120.977,-3.26],[120.865,-3.436],[120.909,-3.577],[121.028,-3.691],[121.083,-3.714],[121.169,-3.824],[121.241,-3.825],[121.261,-3.888],[121.37,-4.002],[121.53,-4.027],[121.609,-4.066],[121.617,-4.151],[121.58,-4.245],[121.534,-4.283],[121.517,-4.443],[121.47,-4.59],[121.47,-4.672],[121.55,-4.773],[121.664,-4.811],[121.684,-4.851],[121.816,-4.834],[121.894,-4.88],[121.992,-4.893],[122.065,-4.854],[122.035,-4.662],[122.09,-4.546],[122.22,-4.479],[122.339,-4.475],[122.42,-4.432],[122.507,-4.451],[122.589,-4.397],[122.676,-4.484],[122.876,-4.418],[122.901,-4.373],[122.906,-4.233],[122.886,-4.123],[122.799,-4.156],[122.679,-4.159],[122.658,-4.007],[122.592,-3.974],[122.444,-3.751],[122.341,-3.744],[122.195,-3.608],[122.279,-3.553],[122.301,-3.466],[122.252,-3.418],[122.311,-3.273],[122.313,-3.164],[122.257,-3.14],[122.151,-3.039],[122.08,-3.092],[122.039,-3.052],[121.887,-3.011],[121.752,-2.924],[121.67,-2.9],[121.5,-2.944],[121.462,-3.011],[121.39,-3.015],[121.153,-2.814],[121.082,-2.773],[121.034,-2.791],[121.01,-2.866]]],[[[122.331,-5.396],[122.463,-5.403],[122.52,-5.438],[122.6,-5.357],[122.639,-5.264],[122.588,-5.16],[122.639,-5.058],[122.68,-5.034],[122.766,-4.899],[122.729,-4.856],[122.74,-4.649],[122.669,-4.61],[122.459,-4.744],[122.382,-4.746],[122.318,-4.831],[122.38,-4.968],[122.382,-5.088],[122.308,-5.147],[122.316,-5.238],[122.276,-5.296],[122.268,-5.383],[122.331,-5.396]]],[[[122.573,-5.536],[122.637,-5.695],[122.803,-5.696],[122.896,-5.565],[122.847,-5.49],[122.971,-5.396],[123.016,-5.444],[123.134,-5.397],[123.218,-5.301],[123.043,-5.142],[122.952,-5.218],[122.921,-5.175],[122.973,-5.114],[122.955,-5.014],[123.01,-4.906],[123.028,-4.764],[123.213,-4.714],[123.192,-4.578],[123.141,-4.488],[123.046,-4.425],[122.948,-4.427],[122.868,-4.526],[122.84,-4.652],[122.856,-4.786],[122.751,-5.147],[122.811,-5.221],[122.733,-5.242],[122.656,-5.324],[122.565,-5.482],[122.573,-5.536]]],[[[123.593,-5.386],[123.645,-5.296],[123.59,-5.249],[123.519,-5.268],[123.593,-5.386]]],[[[122.941,-4.103],[122.996,-4.203],[123.121,-4.261],[123.248,-4.124],[123.217,-4.02],[123.096,-4.024],[123.013,-3.978],[122.941,-4.103]]]]}},{"type":"Feature","properties":{"geo_id":"ID-75","name":"Gorontalo"},"geometry":{"type":"Polygon","coordinates":[[[121.337,0.474],[121.517,0.494],[121.62,0.547],[121.713,0.519],[121.813,0.42],[122.124,0.492],[122.269,0.474],[122.397,0.52],[122.701,0.481],[122.828,0.496],[122.989,0.485],[123.063,0.506],[123.162,0.399],[123.268,0.322],[123.474,0.32],[123.548,0.442],[123.533,0.575],[123.486,0.627],[123.383,0.64],[123.246,0.733],[123.271,0.803],[123.152,0.871],[123.121,0.925],[123.02,0.934],[122.986,0.968],[122.922,0.861],[122.858,0.822],[122.475,1.001],[122.239,0.996],[122.196,1.039],[122.042,0.987],[122.015,0.909],[121.955,0.907],[121.864,0.991],[121.786,0.94],[121.494,0.839],[121.385,0.855],[121.364,0.809],[121.218,0.791],[121.166,0.669],[121.301,0.571],[121.337,0.474]]]}},{"type":"Feature","properties":{"geo_id":"ID-76","name":"Sulawesi Barat"},"geometry":{"type":"Polygon","coordinates":[[[119.561,-0.85],[119.44,-1.104],[119.337,-1.193],[119.303,-1.274],[119.333,-1.348],[119.288,-1.45],[119.327,-1.572],[119.284,-1.661],[119.354,-1.897],[119.318,-1.954],[119.212,-1.997],[119.188,-2.151],[119.145,-2.2],[119.124,-2.334],[119.138,-2.476],[119.042,-2.509],[118.999,-2.614],[118.874,-2.681],[118.823,-2.622],[118.757,-2.785],[118.77,-2.867],[118.852,-2.852],[118.885,-2.911],[118.849,-2.988],[118.829,-3.17],[118.858,-3.297],[118.851,-3.39],[118.907,-3.525],[118.946,-3.553],[119.065,-3.503],[119.236,-3.485],[119.285,-3.43],[119.448,-3.476],[119.474,-3.502],[119.466,-3.377],[119.437,-3.276],[119.387,-3.217],[119.536,-3.139],[119.633,-3.11],[119.565,-2.994],[119.55,-2.898],[119.578,-2.754],[119.682,-2.756],[119.748,-2.714],[119.746,-2.536],[119.688,-2.37],[119.678,-2.28],[119.747,-2.222],[119.714,-2.152],[119.804,-2.112],[119.87,-2.018],[119.872,-1.783],[119.795,-1.74],[119.737,-1.61],[119.672,-1.546],[119.693,-1.473],[119.643,-1.405],[119.521,-1.434],[119.438,-1.378],[119.468,-1.296],[119.577,-1.178],[119.593,-1.125],[119.557,-1.01],[119.561,-0.85]]]}},{"type":"Feature","properties":{"geo_id":"ID-81","name":"Maluku"},"geometry":{"type":"MultiPolygon","coordinates":[[[[128.051,-8.234],[128.077,-8.138],[127.947,-8.146],[127.788,-8.104],[127.794,-8.184],[127.96,-8.247],[128.051,-8.234]]],[[[127.209,-8.106],[127.215,-8.034],[127.138,-8.035],[127.148,-8.102],[127.209,-8.106]]],[[[125.807,-8.007],[125.886,-7.952],[126.071,-7.888],[126.171,-7.923],[126.332,-7.914],[126.423,-7.932],[126.464,-7.975],[126.549,-7.823],[126.695,-7.751],[126.843,-7.734],[126.809,-7.677],[126.64,-7.605],[126.637,-7.563],[126.471,-7.589],[126.323,-7.695],[126.234,-7.689],[126.187,-7.727],[125.947,-7.662],[125.825,-7.904],[125.807,-8.007]]],[[[127.355,-7.65],[127.489,-7.549],[127.388,-7.493],[127.355,-7.529],[127.355,-7.65]]],[[[128.669,-7.161],[128.7,-7.107],[128.611,-7.062],[128.525,-7.144],[128.626,-7.214],[128.669,-7.161]]],[[[128.126,-3.778],[128.264,-3.729],[128.347,-3.636],[128.339,-3.502],[128.257,-3.495],[128.178,-3.583],[128.029,-3.591],[127.918,-3.719],[127.998,-3.781],[128.099,-3.714],[128.126,-3.778]]],[[[128.421,-3.633],[128.542,-3.614],[128.57,-3.565],[128.5,-3.514],[128.414,-3.539],[128.421,-3.633]]],[[[126.692,-3.861],[126.846,-3.791],[126.956,-3.769],[127.051,-3.689],[127.223,-3.66],[127.251,-3.593],[127.259,-3.374],[127.16,-3.337],[127.124,-3.383],[127.049,-3.336],[127.035,-3.266],[127.111,-3.236],[126.984,-3.139],[126.936,-3.144],[126.789,-3.059],[126.598,-3.064],[126.293,-3.098],[126.222,-3.183],[126.132,-3.16],[126.089,-3.113],[126.017,-3.174],[126.007,-3.358],[126.072,-3.475],[126.233,-3.619],[126.522,-3.794],[126.634,-3.821],[126.692,-3.861]]],[[[127.625,-3.307],[127.528,-3.265],[127.506,-3.329],[127.625,-3.307]]],[[[127.799,-3.201],[127.721,-3.16],[127.638,-3.225],[127.704,-3.26],[127.789,-3.257],[127.799,-3.201]]],[[[130.794,-8.345],[130.898,-8.287],[130.924,-8.23],[130.989,-8.235],[131.14,-8.161],[131.033,-8.077],[130.929,-8.199],[130.824,-8.254],[130.794,-8.345]]],[[[129.582,-7.892],[129.674,-8.011],[129.793,-8.043],[129.868,-7.906],[129.845,-7.841],[129.675,-7.786],[129.597,-7.823],[129.582,-7.892]]],[[[127.895,-3.49],[127.946,-3.465],[127.99,-3.376],[128.051,-3.347],[128.091,-3.13],[128.154,-3.069],[128.202,-3.126],[128.182,-3.231],[128.265,-3.203],[128.405,-3.429],[128.472,-3.46],[128.595,-3.426],[128.858,-3.212],[128.966,-3.226],[128.978,-3.361],[129.083,-3.341],[129.288,-3.414],[129.405,-3.417],[129.539,-3.469],[129.566,-3.414],[129.525,-3.298],[129.678,-3.323],[129.807,-3.321],[129.96,-3.359],[130.02,-3.484],[130.417,-3.632],[130.486,-3.708],[130.57,-3.723],[130.61,-3.785],[130.819,-3.851],[130.832,-3.659],[130.881,-3.583],[130.822,-3.516],[130.805,-3.407],[130.664,-3.4],[130.6,-3.148],[130.478,-3.071],[130.384,-2.988],[130.281,-2.976],[130.025,-2.999],[129.911,-2.944],[129.88,-2.897],[129.618,-2.802],[129.377,-2.789],[129.345,-2.86],[129.129,-2.969],[129.083,-2.939],[129.066,-2.81],[128.837,-2.866],[128.754,-2.85],[128.57,-2.854],[128.508,-2.834],[128.404,-2.869],[128.187,-2.867],[128.129,-2.905],[128.088,-3.018],[128,-3.071],[127.873,-3.193],[127.888,-3.272],[127.943,-3.351],[127.895,-3.49]]],[[[131.133,-7.462],[131.162,-7.405],[131.013,-7.422],[130.969,-7.49],[131.078,-7.498],[131.133,-7.462]]],[[[131.332,-7.954],[131.363,-7.87],[131.554,-7.713],[131.659,-7.55],[131.676,-7.463],[131.633,-7.253],[131.747,-7.21],[131.708,-7.143],[131.583,-7.126],[131.518,-7.172],[131.366,-7.373],[131.342,-7.445],[131.242,-7.471],[131.185,-7.59],[131.177,-7.725],[131.133,-7.76],[131.079,-7.875],[131.119,-7.902],[131.103,-7.996],[131.301,-8.023],[131.332,-7.954]]],[[[131.449,-4.065],[131.423,-3.952],[131.367,-3.973],[131.449,-4.065]]],[[[132.741,-5.951],[132.78,-5.942],[132.809,-5.801],[132.772,-5.768],[132.709,-5.63],[132.635,-5.667],[132.679,-5.728],[132.69,-5.836],[132.663,-5.899],[132.741,-5.951]]],[[[132.852,-5.993],[132.96,-5.855],[132.962,-5.743],[133.102,-5.599],[133.191,-5.315],[133.114,-5.292],[133.01,-5.631],[132.946,-5.679],[132.937,-5.77],[132.882,-5.845],[132.852,-5.993]]],[[[134.25,-6.889],[134.333,-6.861],[134.366,-6.782],[134.53,-6.582],[134.485,-6.581],[134.495,-6.511],[134.461,-6.434],[134.339,-6.389],[134.309,-6.305],[134.215,-6.219],[134.101,-6.19],[134.133,-6.334],[134.1,-6.488],[134.07,-6.826],[134.149,-6.866],[134.196,-6.932],[134.25,-6.889]]],[[[134.295,-6.286],[134.337,-6.256],[134.302,-6.169],[134.233,-6.127],[134.227,-6.016],[134.125,-6.036],[134.115,-6.101],[134.179,-6.2],[134.23,-6.202],[134.295,-6.286]]],[[[134.458,-6.276],[134.379,-6.32],[134.379,-6.399],[134.423,-6.41],[134.482,-6.448],[134.533,-6.341],[134.458,-6.276]]],[[[134.341,-6.026],[134.438,-6.012],[134.467,-5.958],[134.536,-5.916],[134.585,-5.933],[134.615,-5.884],[134.689,-5.833],[134.685,-5.774],[134.618,-5.726],[134.594,-5.703],[134.573,-5.671],[134.546,-5.651],[134.536,-5.632],[134.527,-5.564],[134.452,-5.551],[134.415,-5.641],[134.343,-5.728],[134.285,-5.752],[134.371,-5.849],[134.332,-5.941],[134.341,-6.026]]],[[[134.591,-6.464],[134.599,-6.388],[134.546,-6.363],[134.485,-6.448],[134.517,-6.532],[134.591,-6.464]]],[[[134.286,-6.141],[134.344,-6.219],[134.441,-6.224],[134.552,-6.352],[134.63,-6.357],[134.729,-6.302],[134.783,-6.094],[134.663,-5.975],[134.536,-5.919],[134.469,-5.96],[134.439,-6.015],[134.28,-6.048],[134.286,-6.141]]],[[[134.598,-5.568],[134.69,-5.559],[134.648,-5.44],[134.5,-5.42],[134.506,-5.553],[134.598,-5.568]]],[[[134.714,-6.727],[134.761,-6.629],[134.686,-6.595],[134.623,-6.756],[134.714,-6.727]]],[[[134.715,-6.459],[134.64,-6.477],[134.682,-6.563],[134.764,-6.529],[134.715,-6.459]]],[[[134.72,-5.833],[134.628,-5.881],[134.637,-5.93],[134.712,-5.977],[134.72,-5.833]]],[[[134.542,-5.636],[134.572,-5.665],[134.616,-5.723],[134.639,-5.712],[134.7,-5.727],[134.704,-5.709],[134.748,-5.62],[134.553,-5.561],[134.542,-5.636]]],[[[134.874,-6.286],[134.797,-6.389],[134.845,-6.476],[134.906,-6.31],[134.874,-6.286]]]]}},{"type":"Feature","properties":{"geo_id":"ID-82","name":"Maluku Utara"},"geometry":{"type":"MultiPolygon","coordinates":[[[[126.073,-2.434],[125.963,-2.183],[125.992,-2.028],[125.907,-1.976],[125.857,-2.091],[125.881,-2.212],[125.959,-2.326],[125.992,-2.441],[126.073,-2.434]]],[[[125.699,-1.929],[125.842,-1.895],[125.918,-1.939],[126.051,-1.888],[126.247,-1.879],[126.197,-1.804],[126.131,-1.812],[125.884,-1.796],[125.629,-1.828],[125.458,-1.778],[125.366,-1.781],[125.332,-1.826],[125.51,-1.948],[125.699,-1.929]]],[[[124.437,-2.025],[124.692,-1.971],[124.77,-1.918],[124.862,-1.892],[124.976,-1.937],[125.014,-1.899],[125.127,-1.877],[125.327,-1.884],[125.293,-1.732],[125.205,-1.728],[125.108,-1.692],[125.068,-1.773],[124.993,-1.713],[124.672,-1.644],[124.557,-1.638],[124.379,-1.677],[124.337,-1.891],[124.437,-2.025]]],[[[127.244,-0.765],[127.302,-0.681],[127.212,-0.672],[127.168,-0.718],[127.244,-0.765]]],[[[127.228,-0.511],[127.279,-0.451],[127.238,-0.247],[127.148,-0.258],[127.116,-0.387],[127.129,-0.517],[127.228,-0.511]]],[[[127.407,0.623],[127.456,0.673],[127.405,0.759],[127.362,0.678],[127.407,0.623]]],[[[127.323,0.755],[127.386,0.833],[127.325,0.867],[127.323,0.755]]],[[[127.501,-1.269],[127.533,-1.25],[127.67,-1.292],[127.696,-1.229],[127.51,-1.178],[127.501,-1.269]]],[[[127.349,-0.554],[127.409,-0.616],[127.481,-0.63],[127.444,-0.729],[127.475,-0.823],[127.652,-0.748],[127.682,-0.838],[127.763,-0.866],[127.841,-0.844],[127.902,-0.77],[127.797,-0.679],[127.652,-0.682],[127.602,-0.575],[127.691,-0.466],[127.615,-0.402],[127.569,-0.315],[127.492,-0.341],[127.457,-0.416],[127.372,-0.316],[127.291,-0.47],[127.349,-0.554]]],[[[127.465,-1.695],[127.506,-1.726],[127.646,-1.73],[127.721,-1.686],[127.887,-1.683],[128.021,-1.726],[128.155,-1.684],[128.158,-1.605],[128.06,-1.567],[127.936,-1.449],[127.846,-1.438],[127.784,-1.374],[127.642,-1.331],[127.519,-1.418],[127.433,-1.437],[127.403,-1.538],[127.408,-1.662],[127.465,-1.695]]],[[[127.426,1.044],[127.501,1.041],[127.493,0.891],[127.627,0.859],[127.638,0.815],[127.548,0.729],[127.527,0.553],[127.579,0.414],[127.623,0.359],[127.722,0.341],[127.692,0.146],[127.722,0.072],[127.7,-0.098],[127.661,-0.209],[127.687,-0.27],[127.865,-0.367],[127.938,-0.503],[128.012,-0.679],[128.065,-0.717],[128.227,-0.774],[128.232,-0.848],[128.352,-0.889],[128.386,-0.857],[128.213,-0.697],[128.102,-0.511],[127.988,-0.279],[127.965,-0.163],[127.89,-0.003],[127.925,0.108],[127.918,0.274],[127.872,0.31],[127.917,0.455],[128.042,0.478],[128.281,0.396],[128.443,0.404],[128.559,0.318],[128.678,0.337],[128.678,0.55],[128.572,0.562],[128.435,0.632],[128.319,0.656],[128.198,0.79],[128.282,0.82],[128.334,0.912],[128.441,0.93],[128.539,0.976],[128.618,1.047],[128.685,1.068],[128.71,1.288],[128.736,1.399],[128.679,1.494],[128.67,1.59],[128.472,1.552],[128.346,1.461],[128.167,1.366],[128.092,1.243],[128.18,1.243],[128.166,1.124],[128.069,1.123],[127.988,1.091],[127.926,0.966],[127.934,0.888],[127.883,0.829],[127.754,0.808],[127.63,0.943],[127.651,1.022],[127.903,1.15],[127.915,1.219],[127.972,1.276],[128.024,1.469],[128.037,1.581],[127.988,1.614],[128.011,1.738],[127.928,1.81],[127.848,1.818],[127.851,1.925],[127.952,1.992],[127.948,2.024],[128.064,2.172],[127.933,2.18],[127.837,2.09],[127.746,1.968],[127.707,1.945],[127.614,1.783],[127.573,1.756],[127.579,1.658],[127.516,1.569],[127.536,1.504],[127.486,1.361],[127.409,1.234],[127.43,1.155],[127.426,1.044]]],[[[128.197,2.279],[128.249,2.238],[128.253,2.095],[128.3,2.036],[128.521,2.067],[128.621,2.211],[128.65,2.369],[128.692,2.473],[128.581,2.636],[128.522,2.576],[128.461,2.596],[128.294,2.428],[128.275,2.359],[128.197,2.279]]]]}},{"type":"Feature","properties":{"geo_id":"ID-91","name":"Papua Barat"},"geometry":{"type":"Polygon","coordinates":[[[132.599,-2.199],[132.641,-2.286],[132.715,-2.297],[132.783,-2.249],[132.861,-2.248],[132.96,-2.291],[133.025,-2.241],[133.179,-2.194],[133.273,-2.195],[133.423,-2.229],[133.566,-2.212],[133.62,-2.231],[133.948,-2.082],[133.942,-2.232],[133.958,-2.467],[133.899,-2.481],[133.826,-2.445],[133.805,-2.647],[133.663,-2.623],[133.642,-2.533],[133.561,-2.58],[133.529,-2.642],[133.38,-2.656],[133.374,-2.507],[133.275,-2.428],[133.212,-2.412],[133.126,-2.437],[133.034,-2.512],[132.911,-2.664],[132.8,-2.768],[132.73,-2.804],[132.591,-2.695],[132.327,-2.66],[132.143,-2.664],[132.056,-2.781],[132.016,-2.891],[132.088,-2.96],[132.218,-2.922],[132.339,-2.94],[132.562,-3.11],[132.646,-3.193],[132.664,-3.316],[132.808,-3.261],[132.817,-3.444],[132.884,-3.483],[132.92,-3.575],[132.867,-3.645],[132.728,-3.638],[132.733,-3.683],[132.821,-3.884],[132.838,-3.985],[132.917,-4.083],[133.015,-4.118],[133.042,-4.065],[133.252,-4.072],[133.457,-3.859],[133.394,-3.735],[133.598,-3.529],[133.55,-3.454],[133.659,-3.376],[133.649,-3.121],[133.722,-3.036],[133.79,-3.025],[133.78,-3.111],[133.669,-3.226],[133.668,-3.318],[133.699,-3.406],[133.621,-3.477],[133.751,-3.645],[133.84,-3.632],[133.908,-3.705],[133.944,-3.846],[134.041,-3.782],[134.069,-3.821],[134.169,-3.779],[134.15,-3.867],[134.194,-3.959],[134.279,-4.007],[134.439,-3.919],[134.506,-4.044],[134.634,-3.947],[134.707,-3.918],[134.629,-4.118],[134.712,-4.137],[134.735,-4.207],[134.885,-4.252],[134.936,-4.227],[134.969,-4.14],[135.054,-4.049],[135.03,-4.006],[135.097,-3.929],[135.027,-3.832],[135.018,-3.719],[135.123,-3.692],[135.198,-3.596],[134.992,-3.585],[134.977,-3.514],[134.919,-3.44],[134.81,-3.369],[134.757,-3.383],[134.684,-3.261],[134.631,-3.062],[134.586,-2.805],[134.661,-2.756],[134.661,-2.612],[134.641,-2.506],[134.533,-2.449],[134.477,-2.523],[134.462,-2.593],[134.497,-2.66],[134.524,-2.792],[134.459,-2.863],[134.337,-2.549],[134.216,-2.421],[134.154,-2.291],[134.136,-2.153],[134.104,-2.072],[134.14,-2.002],[134.101,-1.836],[134.102,-1.746],[134.069,-1.675],[134.202,-1.55],[134.198,-1.456],[134.275,-1.337],[134.197,-1.21],[134.106,-1.133],[134.07,-1.032],[134.012,-0.964],[134.071,-0.814],[133.971,-0.72],[133.881,-0.715],[133.817,-0.749],[133.599,-0.733],[133.486,-0.741],[133.441,-0.863],[133.469,-0.901],[133.424,-1.149],[133.373,-1.223],[133.264,-1.193],[133.225,-1.254],[133.154,-1.251],[133,-1.355],[132.909,-1.363],[132.854,-1.45],[132.823,-1.556],[132.787,-1.574],[132.772,-1.726],[132.714,-1.883],[132.645,-1.88],[132.626,-1.983],[132.694,-2.07],[132.599,-2.199]]]}},{"type":"Feature","properties":{"geo_id":"ID-92","name":"Papua Barat Daya"},"geometry":{"type":"MultiPolygon","coordinates":[[[[129.83,-1.829],[129.736,-1.859],[129.73,-1.9],[129.86,-1.975],[129.988,-2.001],[130.138,-2.056],[130.267,-2.053],[130.353,-1.919],[130.408,-1.898],[130.443,-1.827],[130.353,-1.738],[130.333,-1.685],[130.198,-1.718],[130.01,-1.742],[129.83,-1.829]]],[[[130.691,-0.891],[130.849,-0.86],[130.855,-0.764],[130.767,-0.819],[130.567,-0.794],[130.486,-0.827],[130.448,-0.899],[130.591,-0.914],[130.691,-0.891]]],[[[130.752,-1.237],[130.812,-1.268],[130.856,-1.343],[130.963,-1.358],[131.044,-1.241],[131.033,-1.198],[131.081,-1.033],[131.031,-0.913],[130.94,-0.941],[130.921,-0.889],[130.741,-0.929],[130.635,-0.98],[130.701,-1.048],[130.69,-1.097],[130.752,-1.237]]],[[[130.233,-0.202],[130.343,-0.256],[130.535,-0.258],[130.582,-0.318],[130.695,-0.3],[130.727,-0.439],[130.813,-0.437],[130.918,-0.393],[130.93,-0.33],[130.847,-0.293],[130.745,-0.292],[130.656,-0.152],[130.777,-0.155],[130.801,-0.242],[130.869,-0.235],[130.942,-0.342],[131.102,-0.322],[131.247,-0.38],[131.306,-0.304],[131.312,-0.184],[131.191,-0.123],[131.133,-0.071],[130.795,-0.006],[130.639,-0.055],[130.4,-0.083],[130.282,-0.112],[130.297,-0.219],[130.233,-0.202]]],[[[131.741,-1.455],[131.715,-1.428],[131.667,-1.447],[131.658,-1.467],[131.64,-1.455],[131.593,-1.465],[131.637,-1.545],[131.733,-1.509],[131.741,-1.455]]],[[[133.486,-0.741],[133.399,-0.742],[133.319,-0.697],[133.235,-0.605],[133.146,-0.544],[133.1,-0.548],[132.742,-0.392],[132.596,-0.358],[132.42,-0.344],[132.339,-0.385],[132.265,-0.382],[132.095,-0.48],[132.07,-0.542],[131.991,-0.569],[131.844,-0.707],[131.558,-0.766],[131.508,-0.73],[131.236,-0.83],[131.272,-0.918],[131.249,-1.083],[131.176,-1.221],[131.024,-1.285],[130.996,-1.457],[131.165,-1.463],[131.208,-1.523],[131.403,-1.433],[131.445,-1.507],[131.5,-1.469],[131.548,-1.488],[131.589,-1.453],[131.646,-1.442],[131.664,-1.449],[131.704,-1.426],[131.718,-1.425],[131.739,-1.443],[131.746,-1.461],[131.745,-1.494],[131.733,-1.518],[131.694,-1.547],[131.854,-1.569],[131.917,-1.72],[132.027,-1.714],[131.922,-1.814],[131.928,-1.882],[131.989,-1.933],[132.04,-2.071],[132.143,-2.149],[132.233,-2.19],[132.297,-2.27],[132.38,-2.263],[132.527,-2.195],[132.599,-2.199],[132.694,-2.07],[132.626,-1.983],[132.645,-1.88],[132.714,-1.883],[132.772,-1.726],[132.787,-1.574],[132.823,-1.556],[132.854,-1.45],[132.909,-1.363],[133,-1.355],[133.154,-1.251],[133.225,-1.254],[133.264,-1.193],[133.373,-1.223],[133.424,-1.149],[133.469,-0.901],[133.441,-0.863],[133.486,-0.741]]]]}},{"type":"Feature","properties":{"geo_id":"ID-94","name":"Papua"},"geometry":{"type":"MultiPolygon","coordinates":[[[[134.892,-1.14],[134.982,-1.07],[134.941,-0.966],[134.841,-0.934],[134.795,-0.984],[134.835,-1.103],[134.892,-1.14]]],[[[135.472,-0.74],[135.643,-0.887],[135.667,-0.863],[135.706,-0.8],[135.727,-0.774],[135.732,-0.753],[135.745,-0.743],[135.728,-0.712],[135.689,-0.722],[135.66,-0.67],[135.41,-0.65],[135.389,-0.709],[135.472,-0.74]]],[[[135.498,-1.68],[135.549,-1.665],[135.674,-1.706],[135.71,-1.69],[135.913,-1.756],[135.987,-1.82],[136.147,-1.853],[136.252,-1.896],[136.314,-1.864],[136.407,-1.883],[136.618,-1.862],[136.702,-1.824],[136.868,-1.815],[136.794,-1.742],[136.584,-1.729],[136.447,-1.704],[136.404,-1.72],[136.182,-1.656],[135.642,-1.626],[135.453,-1.6],[135.498,-1.68]]],[[[135.773,-0.876],[135.826,-1.034],[135.802,-1.098],[135.858,-1.167],[136.035,-1.147],[136.135,-1.2],[136.315,-1.14],[136.332,-1.076],[136.254,-1.018],[136.19,-1.045],[136.104,-0.966],[136.051,-0.859],[135.811,-0.685],[135.78,-0.722],[135.733,-0.753],[135.721,-0.797],[135.741,-0.81],[135.773,-0.876]]],[[[136.011,-2.706],[136.05,-2.771],[136.204,-2.801],[136.29,-2.888],[136.298,-2.973],[136.339,-3.028],[136.578,-3.066],[136.538,-3.156],[136.567,-3.254],[136.666,-3.225],[136.888,-3.259],[136.903,-3.158],[137.041,-3.211],[136.951,-3.284],[137.003,-3.317],[137.111,-3.134],[137.348,-3.09],[137.445,-3.107],[137.552,-3.051],[137.704,-3.038],[137.787,-3.083],[137.961,-3.032],[138.013,-3.058],[138.007,-3.185],[138.079,-3.241],[138.085,-3.03],[138.165,-2.973],[138.203,-3.039],[138.285,-3.017],[138.327,-2.957],[138.41,-2.929],[138.572,-2.961],[138.615,-3.058],[138.584,-3.223],[138.662,-3.31],[138.746,-3.178],[138.806,-3.224],[138.881,-3.228],[138.919,-3.278],[138.876,-3.34],[138.925,-3.389],[139.03,-3.285],[139.147,-3.373],[139.14,-3.426],[139.356,-3.483],[139.373,-3.436],[139.473,-3.46],[139.505,-3.522],[139.518,-3.658],[139.593,-3.705],[139.7,-3.632],[139.744,-3.545],[140.05,-3.673],[140.176,-3.708],[140.27,-3.67],[140.321,-3.744],[140.545,-3.751],[140.688,-3.793],[140.702,-3.886],[140.825,-3.868],[140.834,-3.933],[140.777,-3.96],[140.716,-3.917],[140.634,-3.977],[140.497,-3.905],[140.542,-3.828],[140.417,-3.802],[140.412,-3.884],[140.508,-4.05],[140.586,-4.114],[140.615,-4.059],[140.79,-4.01],[140.893,-3.961],[141.001,-4.02],[141.005,-3.232],[141.001,-2.604],[140.922,-2.622],[140.814,-2.607],[140.706,-2.629],[140.739,-2.515],[140.694,-2.478],[140.458,-2.431],[140.364,-2.456],[140.224,-2.413],[140.116,-2.336],[140.051,-2.36],[139.811,-2.379],[139.528,-2.244],[139.364,-2.148],[139.248,-2.108],[139.125,-2.032],[139,-1.976],[138.875,-1.97],[138.803,-1.932],[138.683,-1.804],[138.629,-1.78],[138.347,-1.711],[138.173,-1.63],[138.066,-1.601],[137.949,-1.534],[137.934,-1.458],[137.748,-1.478],[137.478,-1.599],[137.394,-1.659],[137.094,-1.806],[137.088,-1.851],[137.191,-1.944],[137.228,-2.057],[137.109,-2.111],[136.939,-2.129],[136.75,-2.252],[136.606,-2.253],[136.576,-2.219],[136.429,-2.204],[136.343,-2.26],[136.337,-2.364],[136.296,-2.411],[136.28,-2.512],[136.224,-2.611],[136.011,-2.706]]]]}},{"type":"Feature","properties":{"geo_id":"ID-95","name":"Papua Selatan"},"geometry":{"type":"MultiPolygon","coordinates":[[[[138.821,-8.145],[138.679,-8.17],[138.672,-8.218],[138.587,-8.29],[138.563,-8.352],[138.735,-8.386],[138.897,-8.386],[138.913,-8.297],[138.847,-8.265],[138.821,-8.145]]],[[[137.719,-8.412],[137.857,-8.384],[138.201,-8.383],[138.302,-8.391],[138.474,-8.347],[138.615,-8.249],[138.684,-8.147],[138.803,-8.134],[138.889,-8.023],[138.897,-7.902],[138.978,-7.862],[138.99,-7.776],[139.081,-7.568],[138.941,-7.546],[138.866,-7.439],[138.774,-7.376],[138.673,-7.366],[138.419,-7.404],[138.221,-7.468],[138.033,-7.618],[137.867,-7.853],[137.786,-8.052],[137.695,-8.19],[137.641,-8.422],[137.719,-8.412]]],[[[138.654,-6.745],[138.624,-6.786],[138.676,-6.868],[138.723,-6.884],[138.796,-6.832],[138.736,-6.759],[138.654,-6.745]]],[[[138.709,-6.633],[138.674,-6.725],[138.821,-6.777],[138.824,-6.712],[138.709,-6.633]]],[[[137.678,-5.218],[137.762,-5.349],[137.863,-5.35],[138.017,-5.509],[138.076,-5.737],[138.141,-5.719],[138.172,-5.819],[138.277,-5.841],[138.255,-5.924],[138.309,-5.994],[138.396,-6.17],[138.383,-6.197],[138.438,-6.37],[138.57,-6.487],[138.684,-6.608],[138.824,-6.697],[138.831,-6.781],[138.907,-6.782],[138.914,-6.838],[138.797,-6.851],[138.7,-6.903],[138.628,-6.876],[138.565,-6.933],[138.619,-7.015],[138.706,-7.075],[138.685,-7.23],[138.867,-7.317],[138.92,-7.395],[138.968,-7.521],[139.1,-7.54],[139.019,-7.75],[139.013,-7.86],[138.923,-7.907],[138.907,-8.088],[138.84,-8.106],[138.857,-8.187],[138.923,-8.277],[138.992,-8.197],[139.082,-8.137],[139.223,-8.095],[139.255,-8.155],[139.34,-8.206],[139.509,-8.178],[139.597,-8.129],[139.722,-8.099],[139.95,-8.102],[139.994,-8.199],[140.194,-8.348],[140.505,-8.621],[140.529,-8.687],[140.624,-8.823],[140.728,-8.907],[140.889,-9.082],[141.02,-9.126],[141.019,-8.646],[141.019,-8],[141.02,-7.454],[141.02,-6.892],[140.897,-6.844],[140.848,-6.722],[140.857,-6.642],[140.948,-6.493],[140.939,-6.445],[141,-6.322],[141.001,-5.344],[140.738,-5.278],[140.726,-5.233],[140.626,-5.264],[140.469,-5.22],[140.435,-5.228],[140.297,-5.155],[140.256,-5.059],[140.186,-5.04],[140.06,-5.049],[140.067,-5.159],[139.983,-5.092],[139.888,-5.063],[139.579,-5.053],[139.498,-5.002],[139.228,-4.999],[139.078,-4.986],[139.168,-4.836],[139.114,-4.767],[139.067,-4.84],[138.948,-4.836],[138.943,-4.764],[138.84,-4.728],[138.629,-4.716],[138.571,-4.793],[138.401,-4.812],[138.326,-4.668],[138.247,-4.669],[138.193,-4.713],[138.089,-4.567],[138.031,-4.61],[137.924,-4.593],[137.828,-4.597],[137.77,-4.648],[137.897,-4.78],[137.825,-4.982],[137.734,-5.093],[137.678,-5.218]]]]}},{"type":"Feature","properties":{"geo_id":"ID-96","name":"Papua Tengah"},"geometry":{"type":"Polygon","coordinates":[[[134.885,-4.252],[135.04,-4.376],[135.208,-4.466],[135.347,-4.432],[135.514,-4.447],[135.721,-4.497],[135.928,-4.493],[136.108,-4.619],[136.326,-4.667],[136.455,-4.723],[136.547,-4.791],[136.789,-4.878],[136.832,-4.914],[136.9,-4.881],[136.974,-4.937],[137.043,-4.923],[137.34,-5.056],[137.398,-5.108],[137.678,-5.218],[137.734,-5.093],[137.825,-4.982],[137.897,-4.78],[137.77,-4.648],[137.828,-4.597],[137.924,-4.593],[137.83,-4.541],[137.865,-4.424],[137.933,-4.425],[137.971,-4.222],[137.851,-4.205],[137.734,-4.219],[137.736,-4.121],[137.925,-4.162],[137.98,-4.121],[137.961,-3.939],[138.067,-3.875],[138.104,-3.912],[138.214,-3.885],[138.295,-3.753],[138.281,-3.651],[138.195,-3.599],[138.075,-3.587],[138.035,-3.408],[138.11,-3.287],[138.079,-3.241],[138.007,-3.185],[138.013,-3.058],[137.961,-3.032],[137.787,-3.083],[137.704,-3.038],[137.552,-3.051],[137.445,-3.107],[137.348,-3.09],[137.111,-3.134],[137.003,-3.317],[136.951,-3.284],[137.041,-3.211],[136.903,-3.158],[136.888,-3.259],[136.666,-3.225],[136.567,-3.254],[136.538,-3.156],[136.578,-3.066],[136.339,-3.028],[136.298,-2.973],[136.29,-2.888],[136.204,-2.801],[136.05,-2.771],[136.011,-2.706],[135.946,-2.783],[135.936,-2.917],[135.893,-2.99],[135.827,-3.014],[135.761,-3.105],[135.596,-3.194],[135.559,-3.3],[135.471,-3.373],[135.348,-3.389],[135.152,-3.371],[134.985,-3.328],[134.861,-3.25],[134.866,-3.167],[134.814,-3.104],[134.819,-3.012],[134.687,-2.967],[134.661,-2.756],[134.586,-2.805],[134.631,-3.062],[134.684,-3.261],[134.757,-3.383],[134.81,-3.369],[134.919,-3.44],[134.977,-3.514],[134.992,-3.585],[135.198,-3.596],[135.123,-3.692],[135.018,-3.719],[135.027,-3.832],[135.097,-3.929],[135.03,-4.006],[135.054,-4.049],[134.969,-4.14],[134.936,-4.227],[134.885,-4.252]]]}},{"type":"Feature","properties":{"geo_id":"ID-97","name":"Papua Pegunungan"},"geometry":{"type":"Polygon","coordinates":[[[137.924,-4.593],[138.031,-4.61],[138.089,-4.567],[138.193,-4.713],[138.247,-4.669],[138.326,-4.668],[138.401,-4.812],[138.571,-4.793],[138.629,-4.716],[138.84,-4.728],[138.943,-4.764],[138.948,-4.836],[139.067,-4.84],[139.114,-4.767],[139.168,-4.836],[139.078,-4.986],[139.228,-4.999],[139.498,-5.002],[139.579,-5.053],[139.888,-5.063],[139.983,-5.092],[140.067,-5.159],[140.06,-5.049],[140.186,-5.04],[140.256,-5.059],[140.297,-5.155],[140.435,-5.228],[140.469,-5.22],[140.626,-5.264],[140.726,-5.233],[140.738,-5.278],[141.001,-5.344],[141.001,-4.805],[141.001,-4.02],[140.893,-3.961],[140.79,-4.01],[140.615,-4.059],[140.586,-4.114],[140.508,-4.05],[140.412,-3.884],[140.417,-3.802],[140.542,-3.828],[140.497,-3.905],[140.634,-3.977],[140.716,-3.917],[140.777,-3.96],[140.834,-3.933],[140.825,-3.868],[140.702,-3.886],[140.688,-3.793],[140.545,-3.751],[140.321,-3.744],[140.27,-3.67],[140.176,-3.708],[140.05,-3.673],[139.744,-3.545],[139.7,-3.632],[139.593,-3.705],[139.518,-3.658],[139.505,-3.522],[139.473,-3.46],[139.373,-3.436],[139.356,-3.483],[139.14,-3.426],[139.147,-3.373],[139.03,-3.285],[138.925,-3.389],[138.876,-3.34],[138.919,-3.278],[138.881,-3.228],[138.806,-3.224],[138.746,-3.178],[138.662,-3.31],[138.584,-3.223],[138.615,-3.058],[138.572,-2.961],[138.41,-2.929],[138.327,-2.957],[138.285,-3.017],[138.203,-3.039],[138.165,-2.973],[138.085,-3.03],[138.079,-3.241],[138.11,-3.287],[138.035,-3.408],[138.075,-3.587],[138.195,-3.599],[138.281,-3.651],[138.295,-3.753],[138.214,-3.885],[138.104,-3.912],[138.067,-3.875],[137.961,-3.939],[137.98,-4.121],[137.925,-4.162],[137.736,-4.121],[137.734,-4.219],[137.851,-4.205],[137.971,-4.222],[137.933,-4.425],[137.865,-4.424],[137.83,-4.541],[137.924,-4.593]]]}}]}
